name,addr,city,phone,type,cluster,postal,latlng
arnie morton's of chicago,435 s. la cienega blv.,los angeles,310/246-1501,american,0,90048,"(34.0707083, -118.3765626)"
arnie morton's of chicago,435 s. la cienega blvd.,los angeles,310-246-1501,steakhouses,0,90048,"(34.0707083, -118.3765626)"
arnie morton,435 s. la cienega boulevard,los angeles,310-246-1501,steakhouses,0,90048,"(34.0707083, -118.3765626)"
art's delicatessen,12224 ventura blvd.,studio city,818/762-1221,american,1,91604,"(34.1429632, -118.3994648)"
art's deli,12224 ventura blvd.,studio city,818-762-1221,delis,1,91604,"(34.1429632, -118.3994648)"
art's deli,12224 ventura blvd.,los angeles,818-762-1221,delis,1,91604,"(34.1429632, -118.3994648)"
hotel bel-air,701 stone canyon rd.,bel air,310/472-1211,californian,2,90077,"(34.0865944, -118.4463507)"
bel-air hotel,701 stone canyon rd.,bel air,310-472-1211,californian,2,90077,"(34.0865944, -118.4463507)"
bel-air,701 stone canyon road,bel air,(310) 472-1211,american,2,90077,"(34.0865944, -118.4463507)"
cafe bizou,14016 ventura blvd.,sherman oaks,818/788-3536,french,3,91423,"(34.1489074, -118.4379155)"
cafe bizou,14016 ventura blvd.,sherman oaks,818-788-3536,french bistro,3,91423,"(34.1489074, -118.4379155)"
cafe bizou,14016 ventura blvd.,sherman oaks,(818) 788-3536,bistro,3,91423,"(34.1489074, -118.4379155)"
cafe bizou,14016 ventura blvd,sherman oaks,(818) 788-3536,french,3,91423,"(34.1489074, -118.4379155)"
campanile,624 s. la brea ave.,los angeles,213/938-1447,american,4,90036,"(34.0641419, -118.3437075)"
campanile,624 s. la brea ave.,los angeles,213-938-1447,californian,4,90036,"(34.0641419, -118.3437075)"
chinois on main,2709 main st.,santa monica,310/392-9025,french,5,90405,"(34.0009409, -118.4820634)"
chinois on main,2709 main st.,santa monica,310-392-9025,pacific new wave,5,90405,"(34.0009409, -118.4820634)"
citrus,6703 melrose ave.,los angeles,213/857-0034,californian,6,90038,"(34.0837081, -118.3399396)"
citrus,6703 melrose ave.,los angeles,213-857-0034,californian,6,90038,"(34.0837081, -118.3399396)"
citrus,6703 melrose avenue,los angeles,(213) 857-0034,american,6,90038,"(34.0837081, -118.3399396)"
fenix,8358 sunset blvd. west,hollywood,213/848-6677,american,7,90069,"(34.0950968, -118.3719666)"
fenix,8358 sunset blvd.,w. hollywood,213-848-6677,french (new),7,90069,"(34.0951411, -118.3720244)"
fenix at the argyle,8358 sunset blvd.,w. hollywood,213-848-6677,french (new),7,90069,"(34.0951411, -118.3720244)"
fenix at the argyle,8358 sunset blvd. west,hollywood,213/848-6677,american,7,90069,"(34.0950968, -118.3719666)"
granita,23725 w. malibu rd.,malibu,310/456-0488,californian,8,90265,"(34.0338798, -118.692496)"
granita,23725 w. malibu rd.,malibu,310-456-0488,californian,8,90265,"(34.0338798, -118.692496)"
grill on the alley,9560 dayton way,los angeles,310/276-0615,american,9,90210,"(34.0673605, -118.4018937)"
grill  the,9560 dayton way,beverly hills,310-276-0615,american (traditional),9,90210,"(34.0673605, -118.4018937)"
restaurant katsu,1972 n. hillhurst ave.,los angeles,213/665-1891,asian,10,90027,"(34.1074027, -118.2871721)"
katsu,1972 hillhurst ave.,los feliz,213-665-1891,japanese,10,90027,"(34.1074027, -118.2871721)"
l'orangerie,903 n. la cienega blvd.,los angeles,310/652-9770,french,11,90069,"(34.08714450000001, -118.3766246)"
l'orangerie,903 n. la cienega blvd.,w. hollywood,310-652-9770,french (classic),11,90069,"(34.08714450000001, -118.3766246)"
le chardonnay,8284 melrose ave.,los angeles,213/655-8880,french,12,90048,"(34.0834521, -118.3700949)"
le chardonnay (los angeles),8284 melrose ave.,los angeles,213-655-8880,french bistro,12,90048,"(34.0834521, -118.3700949)"
locanda veneta,3rd st.,los angeles,310/274-1893,italian,13,,"(34.0090307, -118.4881742)"
locanda veneta,8638 w. third st.,los angeles,310-274-1893,italian,13,90048,"(34.0734209, -118.3810981)"
locanda veneta,8638 w 3rd,st los angeles,+1 310-274-1893,italian,13,90048,"(34.0734209, -118.3810981)"
locanda,w. third st.,st los angeles,+1 310-274-1893,italian,13,,"(34.0689472, -118.3225988)"
matsuhisa,129 n. la cienega blvd.,beverly hills,310/659-9639,asian,14,90069,"(34.0683794, -118.3765414)"
matsuhisa,129 n. la cienega blvd.,beverly hills,310-659-9639,seafood,14,90069,"(34.0683794, -118.3765414)"
the palm,9001 santa monica blvd.,los angeles,310/550-8811,american,15,90069,"(34.0834733, -118.3873731)"
palm  the (los angeles),9001 santa monica blvd.,w. hollywood,310-550-8811,steakhouses,15,90069,"(34.083064, -118.387282)"
the palm los angeles,9001 sta monica boulevard,hollywood,+1 213-763-4600,steakhouses,15,90069,"(34.083064, -118.387282)"
patina,5955 melrose ave.,los angeles,213/467-1108,californian,16,90038,"(34.0836552, -118.3302427)"
patina,5955 melrose ave.,los angeles,213-467-1108,californian,16,90038,"(34.0836552, -118.3302427)"
philippe's the original,1001 n. alameda st.,los angeles,213/628-3781,american,17,90012,"(34.059721, -118.237025)"
philippe the original,1001 n. alameda st.,chinatown,213-628-3781,cafeterias,17,90012,"(34.059721, -118.237025)"
philippe the original,1001 north alameda,los angeles,(213) 628-3781,sandwiches,17,90012,"(34.059721, -118.237025)"
pinot bistro,12969 ventura blvd.,los angeles,818/990-0500,french,18,91604,"(34.1457429, -118.4160821)"
pinot bistro,12969 ventura blvd.,studio city,818-990-0500,french bistro,18,91604,"(34.1457429, -118.4160821)"
pinot bistro,12969 ventura boulevard,studio city,(818) 990-0500,bistro,18,91604,"(34.1457429, -118.4160821)"
rex il ristorante,617 s. olive st.,los angeles,213/627-2300,italian,19,90014,"(34.0478472, -118.2548779)"
rex il ristorante,617 s. olive st.,los angeles,213-627-2300,nuova cucina italian,19,90014,"(34.0478472, -118.2548779)"
spago,1114 horn ave.,los angeles,310/652-4025,californian,20,90069,"(34.0911717, -118.3831611)"
spago (los angeles),8795 sunset blvd.,w. hollywood,310-652-4025,californian,20,90069,"(34.0911315, -118.3832896)"
valentino,3115 pico blvd.,santa monica,310/829-4313,italian,21,90404,"(34.026337, -118.4570875)"
valentino,3115 pico blvd.,santa monica,310-829-4313,italian,21,90404,"(34.026337, -118.4570875)"
yujean kang's gourmet chinese cuisine,67 n. raymond ave.,los angeles,818/585-0855,asian,22,91103,"(34.147086, -118.1490988)"
yujean kang's,67 n. raymond ave.,pasadena,818-585-0855,chinese,22,91103,"(34.147086, -118.1490988)"
21 club,21 w. 52nd st.,new york,212/582-7200,american,23,10019,"(40.760533, -73.97739700000001)"
21 club,21 w. 52nd st.,new york city,212-582-7200,american (new),23,10019,"(40.760533, -73.97739700000001)"
aquavit,13 w. 54th st.,new york,212/307-7311,continental,24,10019,"(40.76168, -73.9763516)"
aquavit,13 w. 54th st.,new york city,212-307-7311,scandinavian,24,10019,"(40.76168, -73.9763516)"
aureole,34 e. 61st st.,new york,212/ 319-1660,american,25,10065,"(40.7644003, -73.9700847)"
aureole,34 e. 61st st.,new york city,212-319-1660,american (new),25,10065,"(40.7644003, -73.9700847)"
cafe lalo,201 w. 83rd st.,new york,212/496-6031,coffee bar,26,10024,"(40.78598119999999, -73.97672659999999)"
cafe lalo,201 w. 83rd st.,new york city,212-496-6031,coffeehouses,26,10024,"(40.78598119999999, -73.97672659999999)"
cafe des artistes,1 w. 67th st.,new york,212/877-3500,continental,27,10023,"(40.773502, -73.9789261)"
cafe des artistes,1 w. 67th st.,new york city,212-877-3500,french (classic),27,10023,"(40.773502, -73.9789261)"
carmine's,2450 broadway  between 90th and 91st sts.,new york,212/362-2200,italian,28,10024,"(40.7910963, -73.9739914)"
carmine's,2450 broadway,new york city,212-362-2200,italian,28,10024,"(40.7911109, -73.97397889999999)"
carnegie deli,854 7th ave.  between 54th and 55th sts.,new york,212/757-2245,delicatessen,29,10019,"(40.7643073, -73.98135429999999)"
carnegie deli,854 seventh ave.,new york city,212-757-2245,delis,29,10019,"(40.7642003, -73.9814074)"
chanterelle,2 harrison st.  near hudson st.,new york,212/966-6960,american,30,10013,"(40.7188267, -74.00907509999999)"
chanterelle,2 harrison st.,new york city,212-966-6960,french (new),30,10013,"(40.7188267, -74.00907509999999)"
daniel,20 e. 76th st.,new york,212/288-0033,french,31,10021,"(40.7744937, -73.9640958)"
daniel,20 e. 76th st.,new york city,212-288-0033,french (new),31,10021,"(40.7744937, -73.9640958)"
dawat,210 e. 58th st.,new york,212/355-7555,asian,32,10022,"(40.7604289, -73.9664337)"
dawat,210 e. 58th st.,new york city,212-355-7555,indian,32,10022,"(40.7604289, -73.9664337)"
felidia,243 e. 58th st.,new york,212/758-1479,italian,33,10022,"(40.7603663, -73.96511319999999)"
felidia,243 e. 58th st.,new york city,212-758-1479,italian,33,10022,"(40.7603663, -73.96511319999999)"
four seasons grill room,99 e. 52nd st.,new york,212/754-9494,american,34,10022,"(40.7583177, -73.9718681)"
four seasons,99 e. 52nd st.,new york city,212-754-9494,american (new),34,10022,"(40.7583177, -73.9718681)"
gotham bar & grill,12 e. 12th st.,new york,212/620-4020,american,35,10003,"(40.734207, -73.99369899999999)"
gotham bar & grill,12 e. 12th st.,new york city,212-620-4020,american (new),35,10003,"(40.734207, -73.99369899999999)"
gotham bar and grill,12 e 12th st,new york city,212-620-4020,new american,35,10003,"(40.734207, -73.99369899999999)"
gotham,12 e 12th st,new york,(212) 620-4020,new american,35,10003,"(40.734207, -73.99369899999999)"
gramercy tavern,42 e. 20th st.  between park ave. s and broadway,new york,212/477-0777,american,36,10003,"(40.7384555, -73.98850639999999)"
gramercy tavern,42 e. 20th st.,new york city,212-477-0777,american (new),36,10003,"(40.7384716, -73.98847239999999)"
island spice,402 w. 44th st.,new york,212/765-1737,tel caribbean,37,10036,"(40.7597677, -73.9920779)"
island spice,402 w. 44th st.,new york city,212-765-1737,caribbean,37,10036,"(40.7597677, -73.9920779)"
jo jo,160 e. 64th st.,new york,212/223-5656,american,38,10065,"(40.7650778, -73.96571)"
jo jo,160 e. 64th st.,new york city,212-223-5656,french bistro,38,10065,"(40.7650778, -73.96571)"
la caravelle,33 w. 55th st.,new york,212/586-4252,french,39,10019,"(40.7625147, -73.9763748)"
la caravelle,33 w. 55th st.,new york city,212-586-4252,french (classic),39,10019,"(40.7625147, -73.9763748)"
la cote basque,60 w. 55th st.  between 5th and 6th ave.,new york,212/688-6525,french,40,10019,"(40.762523, -73.977277)"
la cote basque,60 w. 55th st.,new york city,212-688-6525,french (classic),40,10019,"(40.7624832, -73.9773402)"
le bernardin,155 w. 51st st.,new york,212/489-1515,french,41,10019,"(40.7615691, -73.98180479999999)"
le bernardin,155 w. 51st st.,new york city,212-489-1515,seafood,41,10019,"(40.7615691, -73.98180479999999)"
les celebrites,160 central park s,new york,212/484-5113,french,42,10019,"(40.7660208, -73.97864919999999)"
les celebrites,155 w. 58th st.,new york city,212-484-5113,french (classic),42,10019,"(40.7658908, -73.9784202)"
lespinasse,2 e. 55th st.,new york,212/339-6719,american,43,10022,"(40.7613979, -73.9746128)"
lespinasse (new york city),2 e. 55th st.,new york city,212-339-6719,asian,43,10022,"(40.7613979, -73.9746128)"
lespinasse,2 e 55th st,new york,+1 212-339-6719,american,43,10022,"(40.7613979, -73.9746128)"
lutece,249 e. 50th st.,new york,212/752-2225,french,44,10022,"(40.7552873, -73.9689186)"
lutece,249 e. 50th st.,new york city,212-752-2225,french (classic),44,10022,"(40.7552873, -73.9689186)"
manhattan ocean club,57 w. 58th st.,new york,212/ 371-7777,seafood,45,10019,"(40.76500850000001, -73.9761481)"
manhattan ocean club,57 w. 58th st.,new york city,212-371-7777,seafood,45,10019,"(40.76500850000001, -73.9761481)"
march,405 e. 58th st.,new york,212/754-6272,american,46,10022,"(40.7589131, -73.9618473)"
march,405 e. 58th st.,new york city,212-754-6272,american (new),46,10022,"(40.7589131, -73.9618473)"
mesa grill,102 5th ave.  between 15th and 16th sts.,new york,212/807-7400,american,47,10001,"(40.7484405, -73.98566439999999)"
mesa grill,102 fifth ave.,new york city,212-807-7400,southwestern,47,10011,"(40.7370445, -73.9931189)"
mi cocina,57 jane st.  off hudson st.,new york,212/627-8273,mexican,48,10014,"(40.7382407, -74.0054136)"
mi cocina,57 jane st.,new york city,212-627-8273,mexican,48,10014,"(40.738226, -74.0053901)"
montrachet,239 w. broadway  between walker and white sts.,new york,212/ 219-2777,french,49,10013,"(40.7194746, -74.0057567)"
montrachet,239 w. broadway,new york city,212-219-2777,french bistro,49,10013,"(40.7194746, -74.0057567)"
oceana,55 e. 54th st.,new york,212/759-5941,seafood,50,10022,"(40.7602436, -73.9730857)"
oceana,55 e. 54th st.,new york city,212-759-5941,seafood,50,10022,"(40.7602436, -73.9730857)"
park avenue cafe,100 e. 63rd st.,new york,212/644-1900,american,51,10065,"(40.7650225, -73.9676044)"
park avenue cafe (new york city),100 e. 63rd st.,new york city,212-644-1900,american (new),51,10065,"(40.7650225, -73.9676044)"
petrossian,182 w. 58th st.,new york,212/245-2214,french,52,10019,"(40.7660491, -73.9794395)"
petrossian,182 w. 58th st.,new york city,212-245-2214,russian,52,10019,"(40.7660491, -73.9794395)"
picholine,35 w. 64th st.,new york,212/724-8585,mediterranean,53,10023,"(40.7720179, -73.98109749999999)"
picholine,35 w. 64th st.,new york city,212-724-8585,mediterranean,53,10023,"(40.7720179, -73.98109749999999)"
pisces,95 ave. a at 6th st.,new york,212/260-6660,seafood,54,10009,"(40.7256332, -73.984031)"
pisces,95 ave. a,new york city,212-260-6660,seafood,54,10009,"(40.7256613, -73.98408189999999)"
rainbow room,30 rockefeller plaza,new york,212/632-5000,or 212/632-5100 american,55,10111,"(40.7593755, -73.9799726)"
rainbow room,30 rockefeller plaza,new york city,212-632-5000,american (new),55,10111,"(40.7593755, -73.9799726)"
river cafe,1 water st. at the east river,brooklyn,718/522-5200,american,56,11201,"(40.703175, -73.99468999999999)"
river cafe,1 water st.,brooklyn,718-522-5200,american (new),56,11201,"(40.703175, -73.99468999999999)"
san domenico,240 central park s,new york,212/265-5959,italian,57,10019,"(40.7674484, -73.9811332)"
san domenico,240 central park s.,new york city,212-265-5959,italian,57,10019,"(40.7674484, -73.9811332)"
second avenue deli,156 2nd ave. at 10th st.,new york,212/677-0606,delicatessen,58,10003,"(40.7296096, -73.9867012)"
second avenue deli,156 second ave.,new york city,212-677-0606,delis,58,10003,"(40.7296096, -73.9867012)"
seryna,11 e. 53rd st.,new york,212/980-9393,asian,59,10022,"(40.7600551, -73.9745597)"
seryna,11 e. 53rd st.,new york city,212-980-9393,japanese,59,10022,"(40.7600551, -73.9745597)"
shun lee west,43 w. 65th st.,new york,212/371-8844,asian,60,10023,"(40.7729, -73.9813485)"
shun lee palace,155 e. 55th st.,new york city,212-371-8844,chinese,60,10022,"(40.7594346, -73.9690724)"
sign of the dove,1110 3rd ave. at 65th st.,new york,212/861-8080,american,61,10065,"(40.7656223, -73.9639146)"
sign of the dove,1110 third ave.,new york city,212-861-8080,american (new),61,10065,"(40.7656223, -73.9639146)"
smith & wollensky,201 e. 49th st.,new york,212/753-1530,american,62,10017,"(40.755156, -73.9707177)"
smith & wollensky,797 third ave.,new york city,212-753-1530,steakhouses,62,10022,"(40.7551704, -73.9707437)"
tavern on the green,in central park at 67th st.,new york,212/873-3200,american,63,10023,"(40.7730403, -73.97829449999999)"
tavern on the green,central park west,new york city,212-873-3200,american (new),63,,"(40.784612, -73.9698224)"
uncle nick's,747 9th ave.  between 50th and 51st sts.,new york,212/315-1726,mediterranean,64,10019,"(40.763835, -73.988912)"
uncle nick's,747 ninth ave.,new york city,212-245-7992,greek,64,10019,"(40.7638842, -73.9890016)"
union square cafe,21 e. 16th st.,new york,212/243-4020,american,65,10003,"(40.7368653, -73.99126199999999)"
union square cafe,21 e. 16th st.,new york city,212-243-4020,american (new),65,10003,"(40.7368653, -73.99126199999999)"
virgil's,152 w. 44th st.,new york,212/ 921-9494,american,66,10036,"(40.7567595, -73.9851662)"
virgil's real bbq,152 w. 44th st.,new york city,212-921-9494,bbq,66,10036,"(40.7567595, -73.9851662)"
chin's,3200 las vegas blvd. s,las vegas,702/733-8899,asian,67,89109,"(36.1275236, -115.1715003)"
chin's,3200 las vegas blvd. s.,las vegas,702-733-8899,chinese,67,89109,"(36.1275236, -115.1715003)"
coyote cafe,3799 las vegas blvd. s,las vegas,702/891-7349,southwestern,68,89109,"(36.1022507, -115.1699679)"
coyote cafe (las vegas),3799 las vegas blvd. s.,las vegas,702-891-7349,southwestern,68,89109,"(36.1022507, -115.1699679)"
le montrachet,3000 w. paradise rd.,las vegas,702/732-5111,continental,69,89109,"(36.1362611, -115.1512539)"
le montrachet bistro,3000 paradise rd.,las vegas,702-732-5651,french bistro,69,89109,"(36.1362611, -115.1512539)"
palace court,3570 las vegas blvd. s,las vegas,702/731-7547,continental,70,89109,"(36.1161559, -115.1750576)"
palace court,3570 las vegas blvd. s.,las vegas,702-731-7110,french (new),70,89109,"(36.1161559, -115.1750576)"
second street grille,200 e. fremont st.,las vegas,702/385-3232,seafood,71,89101,"(36.1709271, -115.1431516)"
second street grill,200 e. fremont st.,las vegas,702-385-6277,pacific rim,71,89101,"(36.1709271, -115.1431516)"
steak house,2880 las vegas blvd. s,las vegas,702/734-0410,steak houses,72,89109,"(36.13764159999999, -115.1653861)"
steak house  the,2880 las vegas blvd. s.,las vegas,702-734-0410,steakhouses,72,89109,"(36.13764159999999, -115.1653861)"
tillerman,2245 e. flamingo rd.,las vegas,702/731-4036,seafood,73,89119,"(36.114384, -115.1218936)"
tillerman  the,2245 e. flamingo rd.,las vegas,702-731-4036,steakhouses,73,89119,"(36.114384, -115.1218936)"
abruzzi,2355 peachtree rd.  peachtree battle shopping center,atlanta,404/261-8186,italian,74,30305,"(33.819818, -84.38664299999999)"
abruzzi,2355 peachtree rd. ne,atlanta,404-261-8186,italian,74,30305,"(33.8191662, -84.3875183)"
bacchanalia,3125 piedmont rd.  near peachtree rd.,atlanta,404/365-0410,international,75,30305,"(33.8420454, -84.369874)"
bacchanalia,3125 piedmont rd.,atlanta,404-365-0410,californian,75,30305,"(33.8420454, -84.369874)"
bone's,3130 piedmont road,atlanta,404/237-2663,american,76,30305,"(33.8421033, -84.3711029)"
bone's restaurant,3130 piedmont rd. ne,atlanta,404-237-2663,steakhouses,76,30305,"(33.8421033, -84.3711029)"
brasserie le coze,3393 peachtree rd.  lenox square mall  near neiman marcus,atlanta,404/266-1440,french,77,30326,"(33.8462019, -84.3638016)"
brasserie le coze,3393 peachtree rd.,atlanta,404-266-1440,french bistro,77,30326,"(33.846335, -84.3635778)"
buckhead diner,3073 piedmont road,atlanta,404/262-3336,american,78,30305,"(33.8394056, -84.36870359999999)"
buckhead diner,3073 piedmont rd.,atlanta,404-262-3336,american (new),78,30305,"(33.8394056, -84.36870359999999)"
ciboulette,1529 piedmont ave.,atlanta,404/874-7600,french,79,30324,"(33.7956505, -84.3688884)"
ciboulette restaurant,1529 piedmont ave.,atlanta,404-874-7600,french (new),79,30324,"(33.7956505, -84.3688884)"
delectables,1 margaret mitchell sq.,atlanta,404/681-2909,american,80,30327,"(33.8337386, -84.4358012)"
delectables,1 margaret mitchell sq.,atlanta,404-681-2909,cafeterias,80,30327,"(33.8337386, -84.4358012)"
georgia grille,2290 peachtree rd.  peachtree square shopping center,atlanta,404/352-3517,american,81,30309,"(33.8168776, -84.3905078)"
georgia grille,2290 peachtree rd.,atlanta,404-352-3517,southwestern,81,30309,"(33.8171632, -84.3900366)"
hedgerose heights inn,490 e. paces ferry rd.,atlanta,404/233-7673,international,82,30305,"(33.8387692, -84.37190679999999)"
hedgerose heights inn  the,490 e. paces ferry rd. ne,atlanta,404-233-7673,continental,82,30305,"(33.8387692, -84.37190679999999)"
heera of india,595 piedmont ave.  rio shopping mall,atlanta,404/876-4408,asian,83,30324,"(33.7983364, -84.3710444)"
heera of india,595 piedmont ave.,atlanta,404-876-4408,indian,83,30308,"(33.770298, -84.38112190000001)"
indigo coastal grill,1397 n. highland ave.,atlanta,404/876-0676,caribbean,84,30306,"(33.7924709, -84.3521099)"
indigo coastal grill,1397 n. highland ave.,atlanta,404-876-0676,eclectic,84,30306,"(33.7924709, -84.3521099)"
la grotta,2637 peachtree rd.  peachtree house condominium,atlanta,404/231-1368,italian,85,30305,"(33.8266717, -84.38693479999999)"
la grotta,2637 peachtree rd. ne,atlanta,404-231-1368,italian,85,30305,"(33.8266717, -84.38693479999999)"
mary mac's tea room,224 ponce de leon ave.,atlanta,404/876-1800,southern,86,30308,"(33.7728589, -84.37987799999999)"
mary mac's tea room,224 ponce de leon ave.,atlanta,404-876-1800,southern/soul,86,30308,"(33.7728589, -84.37987799999999)"
nikolai's roof,255 courtland st.  at harris st.,atlanta,404/221-6362,continental,87,30303,"(33.761546, -84.383562)"
nikolai's roof,255 courtland st.,atlanta,404-221-6362,continental,87,30303,"(33.761546, -84.383562)"
pano's and paul's,1232 w. paces ferry rd.,atlanta,404/261-3662,international,88,30327,"(33.8492913, -84.42808939999999)"
pano's & paul's,1232 w. paces ferry rd.,atlanta,404-261-3662,american (new),88,30327,"(33.8492913, -84.42808939999999)"
pano's & paul's,1232 west paces ferry rd nw,atlanta,404-261-3662,american (new),88,30327,"(33.8492913, -84.42808939999999)"
cafe  ritz-carlton  buckhead,3434 peachtree rd.,atlanta,404/237-2700,ext 6108 international,89,30326,"(33.8504884, -84.3636308)"
ritz-carlton cafe (buckhead),3434 peachtree rd. ne,atlanta,404-237-2700,american (new),89,30326,"(33.8504884, -84.3636308)"
dining room  ritz-carlton  buckhead,3434 peachtree rd.,atlanta,404/237-2700,international,90,30326,"(33.8504884, -84.3636308)"
ritz-carlton dining room (buckhead),3434 peachtree rd. ne,atlanta,404-237-2700,american (new),90,30326,"(33.8504884, -84.3636308)"
restaurant  ritz-carlton  atlanta,181 peachtree st.,atlanta,404/659-0400,continental,91,30303,"(33.75857209999999, -84.38718109999999)"
ritz-carlton restaurant,181 peachtree st.,atlanta,404-659-0400,french (classic),91,30303,"(33.75857209999999, -84.38718109999999)"
toulouse,b peachtree rd.,atlanta,404/351-9533,french,92,30326,"(33.8544526, -84.35839469999999)"
toulouse,293-b peachtree rd.,atlanta,404-351-9533,french (new),92,30303,"(33.7621776, -84.38750259999999)"
veni vidi vici,41 14th st.,atlanta,404/875-8424,italian,93,30309,"(33.7869457, -84.3887865)"
veni vidi vici,41 14th st.,atlanta,404-875-8424,italian,93,30309,"(33.7869457, -84.3887865)"
alain rondelli,126 clement st.,san francisco,415/387-0408,french,94,94118,"(37.7833153, -122.4606785)"
alain rondelli,126 clement st.,san francisco,415-387-0408,french (new),94,94118,"(37.7833153, -122.4606785)"
aqua,252 california st.,san francisco,415/956-9662,seafood,95,94111,"(37.7934609, -122.3996416)"
aqua,252 california st.,san francisco,415-956-9662,american (new),95,94111,"(37.7934609, -122.3996416)"
boulevard,1 mission st.,san francisco,415/543-6084,american,96,94105,"(37.79332, -122.392761)"
boulevard,1 mission st.,san francisco,415-543-6084,american (new),96,94105,"(37.79332, -122.392761)"
cafe claude,7 claude la.,san francisco,415/392-3505,french,97,94108,"(37.7903324, -122.404517)"
cafe claude,7 claude ln.,san francisco,415-392-3505,french bistro,97,94108,"(37.7903324, -122.404517)"
campton place,340 stockton st.,san francisco,415/955-5555,american,98,94108,"(37.7890965, -122.4065745)"
campton place,340 stockton st.,san francisco,415-955-5555,american (new),98,94108,"(37.7890965, -122.4065745)"
chez michel,804 northpoint,san francisco,415/775-7036,french,99,94109,"(37.805857, -122.420705)"
chez michel,804 north point st.,san francisco,415-775-7036,californian,99,94109,"(37.805857, -122.420705)"
fleur de lys,777 sutter st.,san francisco,415/673-7779,french,100,94109,"(37.7884349, -122.4131455)"
fleur de lys,777 sutter st.,san francisco,415-673-7779,french (new),100,94109,"(37.7884349, -122.4131455)"
fringale,570 4th st.,san francisco,415/543-0573,french,101,94107,"(37.7785416, -122.3971931)"
fringale,570 fourth st.,san francisco,415-543-0573,french bistro,101,94107,"(37.7785416, -122.3971931)"
hawthorne lane,22 hawthorne st.,san francisco,415/777-9779,american,102,94105,"(37.78545200000001, -122.399036)"
hawthorne lane,22 hawthorne st.,san francisco,415-777-9779,californian,102,94105,"(37.78545200000001, -122.399036)"
khan toke thai house,5937 geary blvd.,san francisco,415/668-6654,asian,103,94121,"(37.780077, -122.483303)"
khan toke thai house,5937 geary blvd.,san francisco,415-668-6654,thai,103,94121,"(37.780077, -122.483303)"
la folie,2316 polk st.,san francisco,415/776-5577,french,104,94109,"(37.7981417, -122.4220609)"
la folie,2316 polk st.,san francisco,415-776-5577,french (new),104,94109,"(37.7981417, -122.4220609)"
lulu,816 folsom st.,san francisco,415/495-5775,mediterranean,105,94107,"(37.7817926, -122.4018175)"
lulu restaurant-bis-cafe,816 folsom st.,san francisco,415-495-5775,mediterranean,105,94107,"(37.7817926, -122.4018175)"
masa's,648 bush st.,san francisco,415/989-7154,french,106,94108,"(37.7904165, -122.4080108)"
masa's,648 bush st.,san francisco,415-989-7154,french (new),106,94108,"(37.7904165, -122.4080108)"
mifune japan center  kintetsu building,1737 post st.,san francisco,415/922-0337,asian,107,94115,"(37.7852719, -122.4291175)"
mifune,1737 post st.,san francisco,415-922-0337,japanese,107,94115,"(37.7852719, -122.4291175)"
plumpjack cafe,3201 fillmore st.,san francisco,415/563-4755,mediterranean,108,94123,"(37.79911990000001, -122.4360911)"
plumpjack cafe,3127 fillmore st.,san francisco,415-563-4755,american (new),108,94123,"(37.79834090000001, -122.4359412)"
postrio,545 post st.,san francisco,415/776-7825,american,109,94102,"(37.78783320000001, -122.4107721)"
postrio,545 post st.,san francisco,415-776-7825,californian,109,94102,"(37.78783320000001, -122.4107721)"
ritz-carlton restaurant and dining room,600 stockton st.,san francisco,415/296-7465,american,110,94108,"(37.7918754, -122.4070392)"
ritz-carlton dining room (san francisco),600 stockton st.,san francisco,415-296-7465,french (new),110,94108,"(37.7918754, -122.4070392)"
rose pistola,532 columbus ave.,san francisco,415/399-0499,italian,111,94133,"(37.80007270000001, -122.4094286)"
rose pistola,532 columbus ave.,san francisco,415-399-0499,italian,111,94133,"(37.80007270000001, -122.4094286)"
adriano's ristorante,2930 beverly glen circle,los angeles,310/475-9807,italian,112,90077,"(34.127257, -118.443605)"
barney greengrass,9570 wilshire blvd.,beverly hills,310/777-5877,american,113,90212,"(34.0667493, -118.4026976)"
beaurivage,26025 pacific coast hwy.,malibu,310/456-5733,french,114,90265,"(34.03346630000001, -118.7420834)"
bistro garden,176 n. canon dr.,los angeles,310/550-3900,californian,115,90210,"(34.0676709, -118.3975518)"
border grill,4th st.,los angeles,310/451-1655,mexican,116,,"(34.0557304, -118.2581762)"
broadway deli,3rd st. promenade,santa monica,310/451-0616,american,117,90401,"(34.0164013, -118.4968895)"
ca'brea,346 s. la brea ave.,los angeles,213/938-2863,italian,118,90036,"(34.0674961, -118.3436849)"
ca'del sol,4100 cahuenga blvd.,los angeles,818/985-4669,italian,119,91602,"(34.1439588, -118.3611242)"
cafe pinot,700 w. fifth st.,los angeles,213/239-6500,californian,120,90071,"(34.0510388, -118.2557575)"
california pizza kitchen,207 s. beverly dr.,los angeles,310/275-1101,californian,121,90212,"(34.0647384, -118.3993623)"
canter's,419 n. fairfax ave.,los angeles,213/651-2030.,american,122,90036,"(34.0787779, -118.3618587)"
cava,3rd st.,los angeles,213/658-8898,mediterranean,123,,"(34.0090307, -118.4881742)"
cha cha cha,656 n. virgil ave.,los angeles,213/664-7723,caribbean,124,90004,"(34.0834209, -118.286624)"
chan dara,310 n. larchmont blvd.,los angeles,213/467-1052,asian,125,90004,"(34.076589, -118.3233188)"
clearwater cafe,168 w. colorado blvd.,los angeles,818/356-0959,health food,126,91105,"(34.1454464, -118.1538679)"
dining room,9500 wilshire blvd.,los angeles,310/275-5200,californian,127,90212,"(34.0670787, -118.4001931)"
dive!,10250 santa monica blvd.,los angeles,310/788-,dive american,128,90067,"(34.0590031, -118.418866)"
drago,2628 wilshire blvd.,santa monica,310/828-1585,italian,129,90403,"(34.0364059, -118.476565)"
drai's,730 n. la cienega blvd.,los angeles,310/358-8585,french,130,90069,"(34.0844861, -118.3760979)"
dynasty room,930 hilgard ave.,los angeles,310/208-8765,continental,131,90024,"(34.0633123, -118.440862)"
eclipse,8800 melrose ave.,los angeles,310/724-5959,californian,132,90069,"(34.0805659, -118.3857525)"
ed debevic's,134 n. la cienega,los angeles,310/659-1952,american,133,90048,"(34.0759425, -118.3756145)"
el cholo,1121 s. western ave.,los angeles,213/734-2773,mexican,134,90006,"(34.0503994, -118.3093451)"
gilliland's,2424 main st.,santa monica,310/392-3901,american,135,90405,"(34.0036817, -118.4855511)"
gladstone's,4 fish 17300 pacific coast hwy. at sunset blvd.,pacific palisades,310/454-3474,american,136,90272,"(34.038338, -118.556578)"
hard rock cafe,8600 beverly blvd.,los angeles,310/276-7605,american,137,90048,"(34.0762713, -118.3786544)"
harry's bar & american grill,2020 ave. of the stars,los angeles,310/277-2333,italian,138,90067,"(34.0583309, -118.4154232)"
il fornaio cucina italiana,301 n. beverly dr.,los angeles,310/550-8330,italian,139,90210,"(34.0685256, -118.4008381)"
jack sprat's grill,10668 w. pico blvd.,los angeles,310/837-6662,health food,140,90064,"(34.0420604, -118.4240002)"
jackson's farm,439 n. beverly drive,los angeles,310/273-5578,californian,141,90210,"(34.0706181, -118.4029069)"
jimmy's,201 moreno dr.,los angeles,310/552-2394,continental,142,90212,"(34.0632069, -118.4134126)"
joss,9255 sunset blvd.,los angeles,310/276-1886,asian,143,90069,"(34.09028380000001, -118.3939459)"
le colonial,8783 beverly blvd.,los angeles,310/289-0660,asian,144,90048,"(34.0773657, -118.3833566)"
le dome,8720 sunset blvd.,los angeles,310/659-6919,french,145,90069,"(34.0914626, -118.3811193)"
louise's trattoria,4500 los feliz blvd.,los angeles,213/667-0777,italian,146,90027,"(34.111469, -118.2876817)"
mon kee seafood restaurant,679 n. spring st.,los angeles,213/628-6717,asian,147,90012,"(34.0595568, -118.2382488)"
morton's,8764 melrose ave.,los angeles,310/276-5205,american,148,90069,"(34.0805263, -118.3851134)"
nate 'n' al's,414 n. beverly dr.,los angeles,310/274-0101,american,149,90210,"(34.0704481, -118.4020427)"
nicola,601 s. figueroa st.,los angeles,213/485-0927,american,150,90071,"(34.0508105, -118.2592862)"
ocean avenue,1401 ocean ave.,santa monica,310/394-5669,american,151,90401,"(34.0140628, -118.4974358)"
orleans,11705 national blvd.,los angeles,310/479-4187,cajun,152,90064,"(34.0227695, -118.4389915)"
pacific dining car,6th st.,los angeles,213/483-6000,american,153,,"(34.0635745, -118.3007534)"
paty's,10001 riverside dr.,toluca lake,818/761-9126,american,154,91602,"(34.1524376, -118.3496191)"
pinot hollywood,1448 n. gower st.,los angeles,213/461-8800,californian,155,90028,"(34.0978079, -118.3219489)"
posto,14928 ventura blvd.,sherman oaks,818/784-4400,italian,156,91403,"(34.1521894, -118.4584413)"
prego,362 n. camden dr.,los angeles,310/277-7346,italian,157,90210,"(34.0683982, -118.4035766)"
rj's the rib joint,252 n. beverly dr.,los angeles,310/274-7427,american,158,90210,"(34.0682978, -118.3998339)"
remi,3rd st. promenade,santa monica,310/393-6545,italian,159,90401,"(34.0164013, -118.4968895)"
restaurant horikawa,111 s. san pedro st.,los angeles,213/680-9355,asian,160,90012,"(34.0500968, -118.2413802)"
roscoe's house of chicken 'n' waffles,1514 n. gower st.,los angeles,213/466-9329,american,161,90028,"(34.0985806, -118.322145)"
schatzi on main,3110 main st.,los angeles,310/399-4800,continental,162,90401,"(33.9975848, -118.4795295)"
sofi,3rd st.,los angeles,213/651-0346,mediterranean,163,,"(34.0090307, -118.4881742)"
swingers,8020 beverly blvd.,los angeles,213/653-5858,american,164,90048,"(34.075914, -118.3644371)"
tavola calda,7371 melrose ave.,los angeles,213/658-6340,italian,165,90046,"(34.0837751, -118.3505322)"
the mandarin,430 n. camden dr.,los angeles,310/859-0926,asian,166,90210,"(34.0694428, -118.4043525)"
tommy tang's,7313 melrose ave.,los angeles,213/937-5733,asian,167,90036,"(34.0837982, -118.3491625)"
tra di noi,3835 cross creek rd.,los angeles,310/456-0169,italian,168,90265,"(34.03567530000001, -118.684834)"
trader vic's,9876 wilshire blvd.,los angeles,310/276-6345,asian,169,90210,"(34.06611669999999, -118.4125882)"
vida,1930 north hillhurst ave.,los feliz,213/660-4446,american,170,90027,"(34.1062943, -118.2871264)"
west beach cafe,60 n. venice blvd.,los angeles,310/823-5396,american,171,90291,"(33.9847493, -118.4703069)"
20 mott,20 mott st.  between bowery and pell st.,new york,212/964-0380,asian,172,10013,"(40.7142758, -73.9989208)"
9 jones street,9 jones st.,new york,212/989-1220,american,173,10014,"(40.7323265, -74.0022166)"
adrienne,700 5th ave. at 55th st.,new york,212/903-3918,french,174,10019,"(40.7616221, -73.97546559999999)"
agrotikon,322 e. 14 st.  between 1st and 2nd aves.,new york,212/473-2602,mediterranean,175,10003,"(40.7317696, -73.9841161)"
aja,937 broadway at 22nd st.,new york,212/473-8388,american,176,10010,"(40.7405516, -73.9896744)"
alamo,304 e. 48th st.,new york,212/ 759-0590,mexican,177,10017,"(40.75318499999999, -73.9693632)"
alley's end,311 w. 17th st.,new york,212/627-8899,american,178,10011,"(40.7420166, -74.0015683)"
ambassador grill,1 united nations plaza at 44th st.,new york,212/702-5014,american,179,10017,"(40.7504701, -73.96912209999999)"
american place,2 park ave. at 32nd st.,new york,212/684-2122,american,180,10016,"(40.74625169999999, -73.98266)"
anche vivolo,222 e. 58th st.  between 2nd and 3rd aves.,new york,212/308-0112,italian,181,10022,"(40.7603126, -73.9661582)"
arizona,206 206 e. 60th st.,new york,212/838-0440,american,182,10022,"(40.7618209, -73.9657103)"
arturo's,106 w. houston st.  off thompson st.,new york,212/677-3820,italian,183,10012,"(40.7273906, -74.0003969)"
au mandarin,200-250 vesey st. world financial center,new york,212/385-0313,asian,184,10281,"(40.71397839999999, -74.0147917)"
bar anise,1022 3rd ave.  between 60th and 61st sts.,new york,212/355-1112,mediterranean,185,10065,"(40.7627071, -73.96612739999999)"
barbetta,321 w. 46th st.,new york,212/246-9171,italian,186,10036,"(40.7604109, -73.9889762)"
ben benson's,123 w. 52nd st.,new york,212/581-8888,american,187,10019,"(40.7617542, -73.9805768)"
big cup,228 8th ave.  between 21st and 22nd sts.,new york,212/206-0059,coffee bar,188,10011,"(40.7442827, -73.99886529999999)"
billy's,948 1st ave.  between 52nd and 53rd sts.,new york,212/753-1870,american,189,10022,"(40.75523829999999, -73.9649493)"
boca chica,13 1st ave.  near 1st st.,new york,212/473-0108,latin american,190,10003,"(40.7234473, -73.9885737)"
bolo,23 e. 22nd st.,new york,212/228-2200,mediterranean,191,10010,"(40.7403023, -73.9881731)"
boonthai,1393a 2nd ave.  between 72nd and 73rd sts.,new york,212/249-8484,asian,192,10021,"(40.7692944, -73.9582662)"
bouterin,420 e. 59th st.  off 1st ave.,new york,212/758-0323,french,193,10022,"(40.7589351, -73.9608271)"
brothers bar-b-q,225 varick st. at clarkston st.,new york,212/727-2775,american,194,10014,"(40.7289925, -74.00552499999999)"
bruno,240 e. 58th st.,new york,212/688-4190,italian,195,10022,"(40.7600574, -73.9655842)"
bryant park grill  roof restaurant and bp cafe,25 w. 40th st.  between 5th and 6th aves.,new york,212/840-6500,american,196,10018,"(40.7529465, -73.9819065)"
c3,103 waverly pl.  near washington sq.,new york,212/254-1200,american,197,10011,"(40.7324563, -73.9987344)"
ct,111 e. 22nd st.  between park ave. s and lexington ave.,new york,212/995-8500,french,198,10010,"(40.7394136, -73.9860703)"
cafe bianco,1486 2nd ave.  between 77th and 78th sts.,new york,212/988-2655,coffee bar,199,10075,"(40.7721816, -73.95561289999999)"
cafe botanica,160 central park s,new york,212/484-5120,french,200,10019,"(40.7660208, -73.97864919999999)"
cafe la fortuna,69 w. 71st st.,new york,212/724-5846,coffee bar,201,10023,"(40.7766459, -73.97879019999999)"
cafe luxembourg,200 w. 70th st.,new york,212/873-7411,french,202,10023,"(40.777425, -73.9831099)"
cafe pierre,2 e. 61st st.,new york,212/940-8185,french,203,10065,"(40.7651828, -73.9718937)"
cafe centro,200 park ave.  between 45th st. and vanderbilt ave.,new york,212/818-1222,french,204,10017,"(40.7531572, -73.9768781)"
cafe fes,246 w. 4th st. at charles st.,new york,212/924-7653,mediterranean,205,10011,"(40.734701, -74.003223)"
caffe dante,81 macdougal st.  between houston and bleeker sts.,new york,212/982-5275,coffee bar,206,10012,"(40.728878, -74.001662)"
caffe dell'artista,46 greenwich ave.,new york,212/645-4431,coffee bar,207,10011,"(40.7356133, -74.000277)"
caffe lure,169 sullivan st.  between houston and bleecker sts.,new york,212/473-2642,french,208,10012,"(40.7279278, -74.0009847)"
caffe reggio,119 macdougal st.  between 3rd and bleecker sts.,new york,212/475-9557,coffee bar,209,10012,"(40.73030790000001, -74.0003706)"
caffe roma,385 broome st. at mulberry,new york,212/226-8413,coffee bar,210,10013,"(40.720231, -73.9967999)"
caffe vivaldi,32 jones st. at bleecker st.,new york,212/691-7538,coffee bar,211,10012,"(40.725869, -73.994278)"
caffe bondi ristorante,7 w. 20th st.,new york,212/691-8136,italian,212,10011,"(40.74018510000001, -73.9917492)"
capsouto freres,451 washington st.  near watts st.,new york,212/966-4900,french,213,10013,"(40.723984, -74.00995999999999)"
captain's table,860 2nd ave. at 46th st.,new york,212/697-9538,seafood,214,10017,"(40.7524986, -73.9661194)"
casa la femme,150 wooster st.  between houston and prince sts.,new york,212/505-0005,middle eastern,215,10012,"(40.7260095, -73.9992836)"
cendrillon asian grill & marimba bar,45 mercer st.  between broome and grand sts.,new york,212/343-9012,asian,216,10013,"(40.721674, -74.001407)"
chez jacqueline,72 macdougal st.  between w. houston and bleecker sts.,new york,212/505-0727,french,217,10012,"(40.7282523, -74.0018035)"
chiam,160 e. 48th st.,new york,212/371-2323,asian,218,10017,"(40.754659, -73.9721295)"
china grill,60 w. 53rd st.,new york,212/333-7788,american,219,10019,"(40.7612482, -73.97881269999999)"
cite,120 w. 51st st.,new york,212/956-7100,french,220,10019,"(40.7607952, -73.9812268)"
coco pazzo,23 e. 74th st.,new york,212/794-0205,italian,221,10021,"(40.7734427, -73.9647171)"
columbus bakery,53rd sts.,new york,212/421-0334,coffee bar,222,10019,"(40.7641748, -73.9847444)"
corrado cafe,1013 3rd ave.  between 60th and 61st sts.,new york,212/753-5100,coffee bar,223,,"(40.8327501, -73.9050863)"
cupcake cafe,522 9th ave. at 39th st.,new york,212/465-1530,coffee bar,224,10018,"(40.7563564, -73.9938639)"
da nico,164 mulberry st.  between grand and broome sts.,new york,212/343-1212,italian,225,10013,"(40.7196823, -73.99706429999999)"
dean & deluca,121 prince st.,new york,212/254-8776,coffee bar,226,10012,"(40.7253426, -73.99967509999999)"
diva,341 w. broadway  near grand st.,new york,212/941-9024,italian,227,10014,"(40.7232183, -74.0048444)"
dix et sept,181 w. 10th st.,new york,212/645-8023,french,228,10014,"(40.7344612, -74.00262359999999)"
docks,633 3rd ave. at 40th st.,new york,212/ 986-8080,seafood,229,10017,"(40.7498006, -73.9749831)"
duane park cafe,157 duane st.  between w. broadway and hudson st.,new york,212/732-5555,american,230,10013,"(40.7171756, -74.0093751)"
el teddy's,219 w. broadway  between franklin and white sts.,new york,212/941-7070,mexican,231,10013,"(40.7190438, -74.0061111)"
emily's,1325 5th ave. at 111th st.,new york,212/996-1212,american,232,10029,"(40.7975552, -73.9481517)"
empire korea,6 e. 32nd st.,new york,212/725-1333,asian,233,10016,"(40.746545, -73.98498219999999)"
ernie's,2150 broadway  between 75th and 76th sts.,new york,212/496-1588,american,234,10023,"(40.7814599, -73.9806864)"
evergreen cafe,1288 1st ave. at 69th st.,new york,212/744-3266,asian,235,10021,"(40.76598660000001, -73.9570466)"
f. ille ponte ristorante,39 desbrosses st.  near west st.,new york,212/226-4621,italian,236,10013,"(40.7235314, -74.0112077)"
felix,340 w. broadway at grand st.,new york,212/431-0021,french,237,10013,"(40.7225918, -74.0038234)"
ferrier,29 e. 65th st.,new york,212/772-9000,french,238,10065,"(40.7672541, -73.96821179999999)"
fifty seven fifty seven,57 e. 57th st.,new york,212/758-5757,american,239,10022,"(40.76239229999999, -73.9710279)"
film center cafe,635 9th ave.  between 44th and 45th sts.,new york,212/ 262-2525,american,240,10036,"(40.7602471, -73.9916578)"
fiorello's roman cafe,1900 broadway  between 63rd and 64th sts.,new york,212/595-5330,italian,241,10023,"(40.771536, -73.981646)"
firehouse,522 columbus ave.  between 85th and 86th sts.,new york,212/595-3139,american,242,10024,"(40.786044, -73.9727092)"
first,87 1st ave.  between 5th and 6th sts.,new york,212/674-3823,american,243,10003,"(40.7261712, -73.9867987)"
fishin eddie,73 w. 71st st.,new york,212/874-3474,seafood,244,10023,"(40.7767896, -73.9788166)"
fleur de jour,348 e. 62nd st.,new york,212/355-2020,coffee bar,245,10065,"(40.7616258, -73.9614057)"
flowers,21 west 17th st.  between 5th and 6th aves.,new york,212/691-8888,american,246,10011,"(40.7391649, -73.99474649999999)"
follonico,6 w. 24th st.,new york,212/691-6359,italian,247,10010,"(40.7425357, -73.9903322)"
fraunces tavern,54 pearl st. at broad st.,new york,212/269-0144,american,248,10004,"(40.7033808, -74.01135219999999)"
french roast,458 6th ave. at 11th st.,new york,212/533-2233,french,249,10011,"(40.735146, -73.99803790000001)"
french roast cafe,2340 broadway at 85th st.,new york,212/799-1533,coffee bar,250,10024,"(40.78764169999999, -73.97659019999999)"
frico bar,402 w. 43rd st.  off 9th ave.,new york,212/564-7272,italian,251,10036,"(40.7592097, -73.9927457)"
fujiyama mama,467 columbus ave.  between 82nd and 83rd sts.,new york,212/769-1144,asian,252,10024,"(40.78406469999999, -73.9735675)"
gabriela's,685 amsterdam ave. at 93rd st.,new york,212/961-0574,mexican,253,10025,"(40.7922221, -73.9714209)"
gallagher's,228 w. 52nd st.,new york,212/245-5336,american,254,10019,"(40.7628299, -73.9838826)"
gianni's,15 fulton st.,new york,212/608-7300,seafood,255,10038,"(40.7067158, -74.0030079)"
girafe,208 e. 58th st.  between 2nd and 3rd aves.,new york,212/752-3054,italian,256,10022,"(40.7605255, -73.9665898)"
global,33 93 2nd ave.  between 5th and 6th sts.,new york,212/477-8427,american,257,,"(40.7641964, -73.9617361)"
golden unicorn,18 e. broadway at catherine st.,new york,212/ 941-0911,asian,258,10002,"(40.7136831, -73.9971814)"
grand ticino,228 thompson st.  between w. 3rd and bleecker sts.,new york,212/777-5922,italian,259,10012,"(40.729259, -73.9987795)"
halcyon,151 w. 54th st.  in the rihga royal hotel,new york,212/468-8888,american,260,10019,"(40.7634378, -73.9805417)"
hard rock cafe,221 w. 57th st.,new york,212/489-6565,american,261,10019,"(40.7661451, -73.9810163)"
hi-life restaurant and lounge,1340 1st ave. at 72nd st.,new york,212/249-3600,american,262,10021,"(40.7675679, -73.9557712)"
home,20 cornelia st.  between bleecker and w. 4th st.,new york,212/243-9579,american,263,10014,"(40.7313153, -74.0019629)"
hudson river club,4 world financial center,new york,212/786-1500,american,264,10281,"(40.7127168, -74.01528239999999)"
i trulli,122 e. 27th st.  between lexington and park aves.,new york,212/481-7372,italian,265,10016,"(40.7421252, -73.9836267)"
il cortile,125 mulberry st.  between canal and hester sts.,new york,212/226-6060,italian,266,10013,"(40.7180002, -73.9982677)"
il nido,251 e. 53rd st.,new york,212/753-8450,italian,267,10022,"(40.7570467, -73.9674646)"
inca grill,492 broome st.  near w. broadway,new york,212/966-3371,latin american,268,10013,"(40.723311, -74.0024789)"
indochine,430 lafayette st.  between 4th st. and astor pl.,new york,212/505-5111,asian,269,10003,"(40.7292591, -73.9924719)"
internet cafe,82 e. 3rd st.  between 1st and 2nd aves.,new york,212/ 614-0747,coffee bar,270,10003,"(40.7247613, -73.9883517)"
ipanema,13 w. 46th st.,new york,212/730-5848,latin american,271,10036,"(40.7565846, -73.9797925)"
jean lafitte,68 w. 58th st.,new york,212/751-2323,french,272,10019,"(40.7648121, -73.9764498)"
jewel of india,15 w. 44th st.,new york,212/869-5544,asian,273,10036,"(40.755344, -73.9806613)"
jimmy sung's,219 e. 44th st.  between 2nd and 3rd aves.,new york,212/682-5678,asian,274,10017,"(40.75183699999999, -73.97235599999999)"
joe allen,326 w. 46th st.,new york,212/581-6464,american,275,10036,"(40.7600663, -73.9891208)"
judson grill,152 w. 52nd st.,new york,212/582-5252,american,276,10019,"(40.7617821, -73.9817245)"
l'absinthe,227 e. 67th st.,new york,212/794-4950,french,277,10065,"(40.7660791, -73.9612274)"
l'auberge,1191 1st ave.  between 64th and 65th sts.,new york,212/288-8791,middle eastern,278,10065,"(40.7631741, -73.95972359999999)"
l'auberge du midi,310 w. 4th st.  between w. 12th and bank sts.,new york,212/242-4705,french,279,10014,"(40.737252, -74.0040071)"
l'udo,432 lafayette st.  near astor pl.,new york,212/388-0978,french,280,10003,"(40.72926, -73.9923001)"
la reserve,4 w. 49th st.,new york,212/247-2993,french,281,10020,"(40.7580897, -73.97835189999999)"
lanza restaurant,168 1st ave.  between 10th and 11th sts.,new york,212/674-7014,italian,282,10009,"(40.72890599999999, -73.9840414)"
lattanzi ristorante,361 w. 46th st.,new york,212/315-0980,italian,283,10036,"(40.7608494, -73.990016)"
layla,211 w. broadway at franklin st.,new york,212/431-0700,middle eastern,284,10013,"(40.7189138, -74.0062106)"
le chantilly,106 e. 57th st.,new york,212/751-2931,french,285,10022,"(40.7611746, -73.97024689999999)"
le colonial,149 e. 57th st.,new york,212/ 752-0808,asian,286,10022,"(40.7608569, -73.9683494)"
le gamin,50 macdougal st.  between houston and prince sts.,new york,212/254-4678,coffee bar,287,10012,"(40.7273246, -74.0024635)"
le jardin,25 cleveland pl.  near spring st.,new york,212/343-9599,french,288,10012,"(40.72183589999999, -73.9970804)"
le madri,168 w. 18th st.,new york,212/727-8022,italian,289,10011,"(40.7407365, -73.9976424)"
le marais,150 w. 46th st.,new york,212/869-0900,american,290,10036,"(40.758008, -73.98431529999999)"
le perigord,405 e. 52nd st.,new york,212/755-6244,french,291,10022,"(40.7550069, -73.9646207)"
le select,507 columbus ave.  between 84th and 85th sts.,new york,212/875-1993,american,292,10024,"(40.785307, -73.97267200000002)"
les halles,411 park ave. s  between 28th and 29th sts.,new york,212/679-4111,french,293,10016,"(40.74355509999999, -73.9835152)"
lincoln tavern,51 w. 64th st.,new york,212/721-8271,american,294,10023,"(40.7721715, -73.9815723)"
lola,30 west 22nd st.  between 5th and 6th ave.,new york,212/675-6700,american,295,10010,"(40.7413973, -73.9918309)"
lucky strike,59 grand st.  between wooster st. and w. broadway,new york,212/941-0479,or 212/941-0772 american,296,,"(40.717664, -73.9922279)"
mad fish,2182 broadway  between 77th and 78th sts.,new york,212/787-0202,seafood,297,10024,"(40.7825006, -73.980446)"
main street,446 columbus ave.  between 81st and 82nd sts.,new york,212/873-5025,american,298,10024,"(40.783747, -73.974468)"
mangia e bevi,800 9th ave. at 53rd st.,new york,212/956-3976,italian,299,10019,"(40.7653826, -73.9872991)"
manhattan cafe,1161 1st ave.  between 63rd and 64th sts.,new york,212/888-6556,american,300,10065,"(40.7626082, -73.960087)"
manila garden,325 e. 14th st.  between 1st and 2nd aves.,new york,212/777-6314,asian,301,10003,"(40.732073, -73.983729)"
marichu,342 e. 46th st.  between 1st and 2nd aves.,new york,212/370-1866,french,302,10017,"(40.7516296, -73.96869029999999)"
marquet patisserie,15 e. 12th st.  between 5th ave. and university pl.,new york,212/229-9313,coffee bar,303,10003,"(40.734278, -73.9933978)"
match,160 mercer st.  between houston and prince sts.,new york,212/906-9173,american,304,10012,"(40.7251561, -73.9978924)"
matthew's,1030 3rd ave. at 61st st.,new york,212/838-4343,american,305,10065,"(40.7631442, -73.9658025)"
mavalli palace,46 e. 29th st.,new york,212/679-5535,asian,306,10016,"(40.743968, -73.98426599999999)"
milan cafe and coffee bar,120 w. 23rd st.,new york,212/807-1801,coffee bar,307,10011,"(40.7429744, -73.9937234)"
monkey bar,60 e. 54th st.,new york,212/838-2600,american,308,10022,"(40.7598899, -73.97320859999999)"
montien,1134 1st ave.   between 62nd and 63rd sts.,new york,212/421-4433,asian,309,10065,"(40.7616027, -73.9602057)"
morton's,551 5th ave. at 45th st.,new york,212/972-3315,american,310,10176,"(40.7553885, -73.9788988)"
motown cafe,104 w. 57th st.  near 6th ave.,new york,212/581-8030,american,311,10019,"(40.7647191, -73.977381)"
new york kom tang soot bul house,32 w. 32nd st.,new york,212/ 947-8482,asian,312,10001,"(40.7476187, -73.98725739999999)"
new york noodletown,28 1/2 bowery at bayard st.,new york,212/349-0923,asian,313,10002,"(40.7143965, -73.9969952)"
newsbar,2 w. 19th st.,new york,212/255-3996,coffee bar,314,10011,"(40.7391102, -73.9917759)"
odeon,145 w. broadway at thomas st.,new york,212/233-0507,american,315,10013,"(40.71694000000001, -74.0077773)"
orso,322 w. 46th st.,new york,212/489-7212,italian,316,10036,"(40.7600114, -73.989006)"
osteria al droge,142 w. 44th st.,new york,212/944-3643,italian,317,10036,"(40.7566272, -73.98491369999999)"
otabe,68 e. 56th st.,new york,212/223-7575,asian,318,10022,"(40.7611775, -73.9720541)"
pacifica,138 lafayette st.  between canal and howard sts.,new york,212/941-4168,asian,319,10013,"(40.7191075, -74.00018589999999)"
palio,151 w. 51st. st.,new york,212/245-4850,italian,320,10019,"(40.7614804, -73.98142829999999)"
pamir,1065 1st ave.  at 58th st.,new york,212/644-9258,middle eastern,321,10022,"(40.7591914, -73.9626112)"
parioli romanissimo,24 e. 81st st.,new york,212/288-2391,italian,322,10028,"(40.7775913, -73.9616751)"
patria,250 park ave. s at 20th st.,new york,212/777-6211,latin american,323,10003,"(40.7382621, -73.98821989999999)"
peacock alley,301 park ave.  between 49th and 50th sts.,new york,212/872-4895,french,324,10022,"(40.7565712, -73.97364209999999)"
pen & pencil,205 e. 45th st.,new york,212/682-8660,american,325,10017,"(40.752646, -73.97243499999999)"
penang soho,109 spring st.  between greene and mercer sts.,new york,212/274-8883,asian,326,10012,"(40.723843, -73.9995496)"
persepolis,1423 2nd ave.  between 74th and 75th sts.,new york,212/535-1100,middle eastern,327,10021,"(40.7706177, -73.9576539)"
planet hollywood,140 w. 57th st.,new york,212/333-7827,american,328,10019,"(40.7647437, -73.97891659999999)"
pomaire,371 w. 46th st.  off 9th ave.,new york,212/ 956-3055,latin american,329,10036,"(40.7609109, -73.990307)"
popover cafe,551 amsterdam ave.  between 86th and 87th sts.,new york,212/595-8555,american,330,10024,"(40.78815, -73.974464)"
post house,28 e. 63rd st.,new york,212/935-2888,american,331,10065,"(40.7657037, -73.96921449999999)"
rain,100 w. 82nd st.,new york,212/501-0776,asian,332,10024,"(40.7839758, -73.9745045)"
red tulip,439 e. 75th st.,new york,212/734-4893,eastern european,333,10021,"(40.769258, -73.9526818)"
remi,145 w. 53rd st.,new york,212/581-4242,italian,334,10019,"(40.7622116, -73.97993799999999)"
republic,37a union sq. w  between 16th and 17th sts.,new york,212/627-7172,asian,335,10003,"(40.736722, -73.99022599999999)"
roettelle a. g,126 e. 7th st.  between 1st ave. and ave. a,new york,212/674-4140,continental,336,10009,"(40.7261888, -73.9841806)"
rosa mexicano,1063 1st ave. at 58th st.,new york,212/753-7407,mexican,337,10022,"(40.75896580000001, -73.9627039)"
ruth's chris,148 w. 51st st.,new york,212/245-9600,american,338,10019,"(40.7613323, -73.9821595)"
s.p.q.r,133 mulberry st.  between hester and grand sts.,new york,212/925-3120,italian,339,10013,"(40.7186467, -73.99792409999999)"
sal anthony's,55 irving pl.,new york,212/982-9030,italian,340,10003,"(40.7362535, -73.9873928)"
sammy's roumanian steak house,157 chrystie st. at delancey st.,new york,212/673-0330,east european,341,10002,"(40.7204151, -73.9929658)"
san pietro,18 e. 54th st.,new york,212/753-9015,italian,342,10022,"(40.7604984, -73.97443109999999)"
sant ambroeus,1000 madison ave.  between 77th and 78th sts.,new york,212/570-2211,coffee bar,343,10021,"(40.7754236, -73.9629935)"
sarabeth's kitchen,423 amsterdam ave.  between 80th and 81st sts.,new york,212/496-6280,american,344,10024,"(40.7838797, -73.97742439999999)"
sea grill,19 w. 49th st.,new york,212/332-7610,seafood,345,10020,"(40.7583717, -73.9784907)"
serendipity,3 225 e. 60th st.,new york,212/838-3531,american,346,10022,"(40.7618538, -73.96490399999999)"
seventh regiment mess and bar,643 park ave. at 66th st.,new york,212/744-4107,american,347,10065,"(40.7672426, -73.9655172)"
sfuzzi,58 w. 65th st.,new york,212/873-3700,american,348,10023,"(40.7725349, -73.9814552)"
shaan,57 w. 48th st.,new york,212/ 977-8400,asian,349,10036,"(40.7585039, -73.9805477)"
sofia fabulous pizza,1022 madison ave.  near 79th st.,new york,212/734-2676,italian,350,10075,"(40.7761833, -73.9624213)"
spring street natural restaurant & bar,62 spring st. at lafayette st.,new york,212/966-0290,american,351,10012,"(40.722304, -73.997387)"
stage deli,834 7th ave.  between 53rd and 54th sts.,new york,212/245-7850,delicatessen,352,10019,"(40.7634267, -73.98178949999999)"
stingray,428 amsterdam ave.  between 80th and 81st sts.,new york,212/501-7515,seafood,353,10024,"(40.784271, -73.9777849)"
sweet'n'tart cafe,76 mott st. at canal st.,new york,212/334-8088,asian,354,10013,"(40.7164227, -73.997823)"
t salon,143 mercer st. at prince st.,new york,212/925-3700,coffee bar,355,10012,"(40.7247953, -73.9987163)"
tang pavillion,65 w. 55th st.,new york,212/956-6888,asian,356,10019,"(40.7628464, -73.9771995)"
tapika,950 8th ave. at 56th st.,new york,212/ 397-3737,american,357,10107,"(40.76611339999999, -73.9830345)"
teresa's,103 1st ave.  between 6th and 7th sts.,new york,212/228-0604,east european,358,10003,"(40.7266961, -73.9861943)"
terrace,400 w. 119th st.  between amsterdam and morningside aves.,new york,212/666-9490,continental,359,10027,"(40.808153, -73.958395)"
the coffee pot,350 9th ave. at 49th st.,new york,212/265-3566,coffee bar,360,10019,"(40.7626388, -73.9891817)"
the savannah club,2420 broadway at 89th st.,new york,212/496-1066,american,361,10024,"(40.7905689, -73.974417)"
trattoria dell'arte,900 7th ave.  between 56th and 57th sts.,new york,212/245-9800,italian,362,10106,"(40.7654454, -73.9805358)"
triangolo,345 e. 83rd st.,new york,212/472-4488,italian,363,10028,"(40.7753307, -73.95120539999999)"
tribeca grill,375 greenwich st.  near franklin st.,new york,212/941-3900,american,364,10013,"(40.7196368, -74.009776)"
trois jean,154 e. 79th st.  between lexington and 3rd aves.,new york,212/988-4858,coffee bar,365,10075,"(40.774625, -73.958731)"
tse yang,34 e. 51st st.,new york,212/688-5447,asian,366,10022,"(40.7580053, -73.9744082)"
turkish kitchen,386 3rd ave.  between 27th and 28th sts.,new york,212/679-1810,middle eastern,367,10016,"(40.7418951, -73.98135850000001)"
two two two,222 w. 79th st.,new york,212/799-0400,american,368,10024,"(40.7833293, -73.97945610000001)"
veniero's pasticceria,342 e. 11th st.  near 1st ave.,new york,212/674-7264,coffee bar,369,10003,"(40.7294893, -73.98452019999999)"
verbena,54 irving pl. at 17th st.,new york,212/260-5454,american,370,10003,"(40.7359945, -73.98697440000001)"
victor's cafe,52 236 w. 52nd st.,new york,212/586-7714,latin american,371,10019,"(40.7628851, -73.9841351)"
vince & eddie's,70 w. 68th st.,new york,212/721-0068,american,372,10023,"(40.774492, -73.980317)"
vong,200 e. 54th st.,new york,212/486-9592,american,373,10022,"(40.7579569, -73.9685741)"
water club,500 e. 30th st.,new york,212/683-3333,american,374,10016,"(40.7403761, -73.97237340000001)"
west,63rd street steakhouse 44 w. 63rd st.,new york,212/246-6363,american,375,10023,"(40.7715018, -73.98286329999999)"
xunta,174 1st ave.  between 10th and 11th sts.,new york,212/614-0620,mediterranean,376,10009,"(40.7290328, -73.98391509999999)"
zen palate,34 union sq. e at 16th st.,new york,212/614-9291,and 212/614-9345 asian,377,10003,"(40.7357345, -73.98918359999999)"
zoe,90 prince st.  between broadway and mercer st.,new york,212/966-6722,american,378,10012,"(40.7243973, -73.9985495)"
abbey,163 ponce de leon ave.,atlanta,404/876-8532,international,379,30308,"(33.7720888, -84.3820901)"
aleck's barbecue heaven,783 martin luther king jr. dr.,atlanta,404/525-2062,barbecue,380,30314,"(33.754857, -84.4129567)"
annie's thai castle,3195 roswell rd.,atlanta,404/264-9546,asian,381,30305,"(33.8422175, -84.3784766)"
anthonys,3109 piedmont rd.  just south of peachtree rd.,atlanta,404/262-7379,american,382,30305,"(33.8413788, -84.3683527)"
atlanta fish market,265 pharr rd.,atlanta,404/262-3165,american,383,30305,"(33.836649, -84.37880539999999)"
beesley's of buckhead,260 e. paces ferry road,atlanta,404/264-1334,continental,384,30305,"(33.8393374, -84.3789146)"
bertolini's,3500 peachtree rd.  phipps plaza,atlanta,404/233-2333,italian,385,30326,"(33.852544, -84.361986)"
bistango,1100 peachtree st.,atlanta,404/724-0901,mediterranean,386,30309,"(33.78500150000001, -84.38385559999999)"
cafe renaissance,7050 jimmy carter blvd.  norcross,atlanta,770/441--0291,american,387,30092,"(33.947159, -84.2414678)"
camille's,1186 n. highland ave.,atlanta,404/872-7203,italian,388,30306,"(33.7868949, -84.35572479999999)"
cassis,3300 peachtree rd.  grand hyatt,atlanta,404/365-8100,mediterranean,389,30305,"(33.8452408, -84.3704039)"
city grill,50 hurt plaza,atlanta,404/524-2489,international,390,30303,"(33.7543349, -84.3868116)"
coco loco,40  buckhead crossing mall on the sidney marcus blvd.,atlanta,404/364-0212,caribbean,391,30324,"(33.8272888, -84.3651615)"
colonnade restaurant,1879 cheshire bridge rd.,atlanta,404/874-5642,southern,392,30324,"(33.8092277, -84.3609824)"
dante's down the hatch  buckhead,3380 peachtree rd.,atlanta,404/266-1600,continental,393,30326,"(33.8496311, -84.3660752)"
dante's down the hatch,underground underground mall  underground atlanta,atlanta,404/577-1800,continental,394,30303,"(33.7532188, -84.39192589999999)"
fat matt's rib shack,1811 piedmont ave.  near cheshire bridge rd.,atlanta,404/607-1622,barbecue,395,30324,"(33.804608, -84.3671136)"
french quarter food shop,923 peachtree st.  at 8th st.,atlanta,404/875-2489,southern,396,30309,"(33.7813888, -84.38308579999999)"
holt bros. bar-b-q,6359 jimmy carter blvd.  at buford hwy.  norcross,atlanta,770/242-3984,barbecue,397,30071,"(33.9315449, -84.22147799999999)"
horseradish grill,4320 powers ferry rd.,atlanta,404/255-7277,southern,398,30342,"(33.8728089, -84.39643819999999)"
hsu's gourmet,192 peachtree center ave.  at international blvd.,atlanta,404/659-2788,asian,399,30303,"(33.7589499, -84.3864526)"
imperial fez,2285 peachtree rd.  peachtree battle condominium,atlanta,404/351-0870,mediterranean,400,30309,"(33.8163907, -84.3895753)"
kamogawa,3300 peachtree rd.  grand hyatt,atlanta,404/841-0314,asian,401,30305,"(33.8452408, -84.3704039)"
la grotta at ravinia dunwoody rd.,holiday inn/crowne plaza at ravinia  dunwoody,atlanta,770/395-9925,italian,402,30346,"(33.9209167, -84.3377975)"
little szechuan,c buford hwy.  northwoods plaza  doraville,atlanta,770/451-0192,asian,403,30340,"(33.8905475, -84.28500559999999)"
lowcountry barbecue,6301 roswell rd.  sandy springs plaza  sandy springs,atlanta,404/255-5160,barbecue,404,30328,"(33.926974, -84.378188)"
luna si,1931 peachtree rd.,atlanta,404/355-5993,continental,405,30309,"(33.8074904, -84.3934671)"
mambo restaurante cubano,1402 n. highland ave.,atlanta,404/874-2626,caribbean,406,30306,"(33.7927506, -84.3525207)"
mckinnon's louisiane,3209 maple dr.,atlanta,404/237-1313,southern,407,30305,"(33.8427104, -84.372103)"
mi spia dunwoody rd.,park place  across from perimeter mall  dunwoody,atlanta,770/393-1333,italian,408,30346,"(33.9237949, -84.3409724)"
nickiemoto's: a sushi bar,247 buckhead ave.  east village sq.,atlanta,404/842-0334,fusion,409,30305,"(33.8380013, -84.37962449999999)"
palisades,1829 peachtree rd.,atlanta,404/350-6755,continental,410,30309,"(33.8050996, -84.393458)"
pleasant peasant,555 peachtree st.  at linden ave.,atlanta,404/874-3223,american,411,30308,"(33.7696571, -84.3849082)"
pricci,500 pharr rd.,atlanta,404/237-2941,italian,412,30305,"(33.8373594, -84.3714961)"
r.j.'s uptown kitchen & wine bar,870 n. highland ave.,atlanta,404/875-7775,american,413,30306,"(33.7783157, -84.35311639999999)"
rib ranch,25 irby ave.,atlanta,404/233-7644,barbecue,414,30305,"(33.8413887, -84.3797908)"
sa tsu ki,3043 buford hwy.,atlanta,404/325-5285,asian,415,30329,"(33.8364566, -84.3351212)"
sato sushi and thai,6050 peachtree pkwy.  norcross,atlanta,770/449-0033,asian,416,30092,"(33.9536578, -84.23201139999999)"
south city kitchen,1144 crescent ave.,atlanta,404/873-7358,southern,417,30309,"(33.7859545, -84.3844341)"
south of france,2345 cheshire bridge rd.,atlanta,404/325-6963,french,418,30324,"(33.8191337, -84.3503435)"
stringer's fish camp and oyster bar,3384 shallowford rd.  chamblee,atlanta,770/458-7145,southern,419,30341,"(33.8870361, -84.2855242)"
sundown cafe,2165 cheshire bridge rd.,atlanta,404/321-1118,american,420,30324,"(33.8133915, -84.3534936)"
taste of new orleans,889 w. peachtree st.,atlanta,404/874-5535,southern,421,30309,"(33.7790951, -84.38693479999999)"
tomtom,3393 peachtree rd.,atlanta,404/264-1163,continental,422,30326,"(33.846335, -84.3635778)"
antonio's,3700 w. flamingo,las vegas,702/252-7737,italian,423,89103,"(36.1163819, -115.1850253)"
bally's big kitchen,3645 las vegas blvd. s,las vegas,702/739-4111,buffets,424,89109,"(36.1142224, -115.1708505)"
bamboo garden,4850 flamingo rd.,las vegas,702/871-3262,asian,425,89103,"(36.1163232, -115.206238)"
battista's hole in the wall,4041 audrie st. at flamingo rd.,las vegas,702/732-1424,italian,426,89109,"(36.1152401, -115.1683221)"
bertolini's,3570 las vegas blvd. s,las vegas,702/735-4663,italian,427,89109,"(36.1161559, -115.1750576)"
binion's coffee shop,128 fremont st.,las vegas,702/382-1600,coffee shops/diners,428,89101,"(36.1716327, -115.1442634)"
bistro,3400 las vegas blvd. s,las vegas,702/791-7111,continental,429,89109,"(36.1206111, -115.1768386)"
broiler,4111 boulder hwy.,las vegas,702/432-7777,american,430,89121,"(36.1329379, -115.084697)"
bugsy's diner,3555 las vegas blvd. s,las vegas,702/733-3111,coffee shops/diners,431,89109,"(36.1162077, -115.1707806)"
cafe michelle,1350 e. flamingo rd.,las vegas,702/735-8686,american,432,89119,"(36.1155052, -115.1345664)"
cafe roma,3570 las vegas blvd. s,las vegas,702/731-7547,coffee shops/diners,433,89109,"(36.1161559, -115.1750576)"
capozzoli's,3333 s. maryland pkwy.,las vegas,702/731-5311,italian,434,89169,"(36.1289894, -115.1377317)"
carnival world,3700 w. flamingo rd.,las vegas,702/252-7777,buffets,435,89103,"(36.1163819, -115.1850253)"
center stage plaza hotel,1 main st.,las vegas,702/386-2512,american,436,89101,"(36.1721156, -115.1469038)"
circus circus,2880 las vegas blvd. s,las vegas,702/734-0410,buffets,437,89109,"(36.13764159999999, -115.1653861)"
empress court,3570 las vegas blvd. s,las vegas,702/731-7888,asian,438,89109,"(36.1161559, -115.1750576)"
feast,2411 w. sahara ave.,las vegas,702/367-2411,buffets,439,89102,"(36.1429464, -115.1749359)"
golden nugget hotel,129 e. fremont st.,las vegas,702/385-7111,buffets,440,89101,"(36.1701653, -115.1449582)"
golden steer,308 w. sahara ave.,las vegas,702/384-4470,steak houses,441,89102,"(36.144141, -115.161171)"
lillie langtry's,129 e. fremont st.,las vegas,702/385-7111,asian,442,89101,"(36.1701653, -115.1449582)"
mandarin court,1510 e. flamingo rd.,las vegas,702/737-1234,asian,443,89119,"(36.1152868, -115.1328213)"
margarita's mexican cantina,3120 las vegas blvd. s,las vegas,702/794-8200,mexican,444,89109,"(36.129066, -115.168791)"
mary's diner,5111 w. boulder hwy.,las vegas,702/454-8073,coffee shops/diners,445,89122,"(36.1128952, -115.0623534)"
mikado,3400 las vegas blvd. s,las vegas,702/791-7111,asian,446,89109,"(36.1206111, -115.1768386)"
pamplemousse,400 e. sahara ave.,las vegas,702/733-2066,continental,447,89104,"(36.1439588, -115.1523467)"
ralph's diner,3000 las vegas blvd. s,las vegas,702/732-6330,coffee shops/diners,448,89109,"(36.1341269, -115.167604)"
the bacchanal,3570 las vegas blvd. s,las vegas,702/731-7525,only in las vegas,449,89109,"(36.1161559, -115.1750576)"
venetian,3713 w. sahara ave.,las vegas,702/876-4190,italian,450,89102,"(36.1439486, -115.1917413)"
viva mercado's,6182 w. flamingo rd.,las vegas,702/871-8826,mexican,451,89103,"(36.1149027, -115.2269398)"
yolie's,3900 paradise rd.,las vegas,702/794-0700,steak houses,452,89123,"(36.0337076, -115.1404226)"
2223,2223 market st.,san francisco,415/431-0692,american,453,94114,"(37.7651206, -122.4313774)"
acquarello,1722 sacramento st.,san francisco,415/567-5432,italian,454,94109,"(37.7915485, -122.421442)"
bardelli's,243 o'farrell st.,san francisco,415/982-0243,old san francisco,455,94102,"(37.78599310000001, -122.4086873)"
betelnut,2030 union st.,san francisco,415/929-8855,asian,456,94123,"(37.7976775, -122.432701)"
bistro roti,155 steuart st.,san francisco,415/495-6500,french,457,94105,"(37.7928445, -122.3922586)"
bix,56 gold st.,san francisco,415/433-6300,american,458,94133,"(37.7968486, -122.4029681)"
bizou,598 fourth st.,san francisco,415/543-2222,french,459,94107,"(37.7783538, -122.3967223)"
buca giovanni,800 greenwich st.,san francisco,415/776-7766,italian,460,94133,"(37.8019982, -122.4131132)"
cafe adriano,3347 fillmore st.,san francisco,415/474-4180,italian,461,94123,"(37.8004898, -122.4364719)"
cafe marimba,2317 chestnut st.,san francisco,415/776-1506,mexican/latin american/spanish,462,94123,"(37.7999557, -122.4414378)"
california culinary academy,625 polk st.,san francisco,415/771-3500,french,463,94102,"(37.782421, -122.4194442)"
capp's corner,1600 powell st.,san francisco,415/989-2589,italian,464,94133,"(37.7994503, -122.4104242)"
carta,1772 market st.,san francisco,415/863-3516,american,465,94102,"(37.7724004, -122.4230747)"
chevys,4th and howard sts.,san francisco,415/543-8060,mexican/latin american/spanish,466,94103,"(37.7832684, -122.4027358)"
cypress club,500 jackson st.,san francisco,415/296-8555,american,467,94133,"(37.7964852, -122.4038232)"
des alpes,732 broadway,san francisco,415/788-9900,french,468,94133,"(37.7977472, -122.4091852)"
faz,161 sutter st.,san francisco,415/362-0404,greek and middle eastern,469,94104,"(37.7897426, -122.4033221)"
fog city diner,1300 battery st.,san francisco,415/982-2000,american,470,94111,"(37.8034545, -122.4018175)"
garden court,market and new montgomery sts.,san francisco,415/546-5011,old san francisco,471,94104,"(37.7888235, -122.4019899)"
gaylord's,ghirardelli sq.,san francisco,415/771-8822,asian,472,94109,"(37.8058634, -122.4226382)"
grand cafe hotel monaco,501 geary st.,san francisco,415/292-0101,american,473,94102,"(37.7866571, -122.4119065)"
greens,bldg. a fort mason,san francisco,415/771-6222,vegetarian,474,94123,"(37.8055649, -122.431836)"
harbor village,4 embarcadero center,san francisco,415/781-8833,asian,475,94111,"(37.7953898, -122.3961067)"
harris',2100 van ness ave.,san francisco,415/673-1888,steak houses,476,94109,"(37.7950668, -122.4229237)"
harry denton's,161 steuart st.,san francisco,415/882-1333,american,477,94105,"(37.7926439, -122.3922179)"
hayes street grill,320 hayes st.,san francisco,415/863-5545,seafood,478,94102,"(37.77717620000001, -122.4218286)"
helmand,430 broadway,san francisco,415/362-0641,greek and middle eastern,479,94133,"(37.7983379, -122.4044745)"
hong kong flower lounge,5322 geary blvd.,san francisco,415/668-8998,asian,480,94121,"(37.78070870000001, -122.4766645)"
hong kong villa,2332 clement st.,san francisco,415/752-8833,asian,481,94121,"(37.7823089, -122.48447)"
hyde street bistro,1521 hyde st.,san francisco,415/441-7778,italian,482,94109,"(37.79479, -122.4183706)"
il fornaio levi's plaza,1265 battery st.,san francisco,415/986-0100,italian,483,94111,"(37.802907, -122.4020405)"
izzy's steak & chop house,3345 steiner st.,san francisco,415/563-0487,steak houses,484,94123,"(37.8002836, -122.4380759)"
jack's,615 sacramento st.,san francisco,415/986-9854,old san francisco,485,94111,"(37.7935846, -122.4034315)"
kabuto sushi,5116 geary blvd.,san francisco,415/752-5652,asian,486,94118,"(37.7808431, -122.4742885)"
katia's,600 5th ave.,san francisco,415/668-9292,,487,94118,"(37.7771579, -122.4626687)"
kuleto's,221 powell st.,san francisco,415/397-7720,italian,488,94102,"(37.7867415, -122.4083384)"
kyo-ya. sheraton palace hotel,2 new montgomery st.  at market st.,san francisco,415/546-5000,asian,489,94105,"(37.7880304, -122.4018602)"
l'osteria del forno,519 columbus ave.,san francisco,415/982-1124,italian,490,94133,"(37.799736, -122.4096355)"
le central,453 bush st.,san francisco,415/391-2233,french,491,94108,"(37.7904686, -122.4050381)"
le soleil,133 clement st.,san francisco,415/668-4848,asian,492,94118,"(37.782955, -122.460702)"
macarthur park,607 front st.,san francisco,415/398-5700,american,493,94111,"(37.7971519, -122.399915)"
manora,3226 mission st.,san francisco,415/861-6224,asian,494,94110,"(37.7451375, -122.4205013)"
maykadeh,470 green st.,san francisco,415/362-8286,greek and middle eastern,495,94133,"(37.7999699, -122.4070642)"
mccormick & kuleto's,ghirardelli sq.,san francisco,415/929-1730,seafood,496,94109,"(37.8058634, -122.4226382)"
millennium,246 mcallister st.,san francisco,415/487-9800,vegetarian,497,94102,"(37.7808727, -122.4161321)"
moose's,1652 stockton st.,san francisco,415/989-7800,mediterranean,498,94133,"(37.8010729, -122.409141)"
north india,3131 webster st.,san francisco,415/931-1556,asian,499,94123,"(37.7996849, -122.4345811)"
one market,1 market st.,san francisco,415/777-5577,american,500,94105,"(37.7940118, -122.394945)"
oritalia,1915 fillmore st.,san francisco,415/346-1333,italian,501,94115,"(37.7875252, -122.4338291)"
pacific pan pacific hotel,500 post st.,san francisco,415/929-2087,french,502,94102,"(37.7883396, -122.4103029)"
palio d'asti,640 sacramento st.,san francisco,415/395-9800,italian,503,94111,"(37.7938689, -122.4036744)"
pane e vino,3011 steiner st.,san francisco,415/346-2111,italian,504,94123,"(37.7971274, -122.4373902)"
pastis,1015 battery st.,san francisco,415/391-2555,french,505,94111,"(37.800641, -122.401795)"
perry's,1944 union st.,san francisco,415/922-9022,american,506,94123,"(37.7978273, -122.4313074)"
r&g lounge,631 b kearny st.,san francisco,415/982-7877,or 415/982-3811 asian,507,94108,"(37.7940903, -122.4049254)"
rubicon,558 sacramento st.,san francisco,415/434-4100,american,508,94111,"(37.7940228, -122.402342)"
rumpus,1 tillman pl.,san francisco,415/421-2300,american,509,94108,"(37.7893549, -122.4057338)"
sanppo,1702 post st.,san francisco,415/346-3486,asian,510,94115,"(37.7857866, -122.4301854)"
scala's bistro,432 powell st.,san francisco,415/395-8555,italian,511,94102,"(37.7888442, -122.408393)"
south park cafe,108 south park,san francisco,415/495-7275,french,512,94107,"(37.7816579, -122.3938961)"
splendido embarcadero,4,san francisco,415/986-3222,mediterranean,513,94108,"(37.7915453, -122.4122999)"
stars,150 redwood alley,san francisco,415/861-7827,american,514,94102,"(37.7808379, -122.4194692)"
stars cafe,500 van ness ave.,san francisco,415/861-4344,american,515,94102,"(37.7802979, -122.4200025)"
stoyanof's cafe,1240 9th ave.,san francisco,415/664-3664,greek and middle eastern,516,94122,"(37.7651584, -122.4661957)"
straits cafe,3300 geary blvd.,san francisco,415/668-1783,asian,517,94118,"(37.781865, -122.4544116)"
suppenkuche,601 hayes st.,san francisco,415/252-9289,russian/german,518,94102,"(37.7764699, -122.4262854)"
tadich grill,240 california st.,san francisco,415/391-2373,seafood,519,94111,"(37.79342, -122.399466)"
the heights,3235 sacramento st.,san francisco,415/474-8890,french,520,94115,"(37.7880656, -122.4461528)"
thepin,298 gough st.,san francisco,415/863-9335,asian,521,94102,"(37.7758205, -122.4226361)"
ton kiang,3148 geary blvd.,san francisco,415/752-4440,asian,522,94118,"(37.7820001, -122.4530359)"
vertigo,600 montgomery st.,san francisco,415/433-7250,mediterranean,523,94111,"(37.7950185, -122.4027468)"
vivande porta via,2125 fillmore st.,san francisco,415/346-4430,italian,524,94115,"(37.7893618, -122.43422)"
vivande ristorante,670 golden gate ave.,san francisco,415/673-9245,italian,525,94102,"(37.7810143, -122.4216193)"
world wrapps,2257 chestnut st.,san francisco,415/563-9727,american,526,94123,"(37.8000966, -122.4404122)"
wu kong,101 spear st.,san francisco,415/957-9300,asian,527,94105,"(37.792549, -122.3930995)"
yank sing,427 battery st.,san francisco,415/541-4949,asian,528,94111,"(37.79533929999999, -122.4006374)"
yaya cuisine,1220 9th ave.,san francisco,415/566-6966,greek and middle eastern,529,94122,"(37.7654934, -122.4661957)"
yoyo tsumami bistro,1611 post st.,san francisco,415/922-7788,french,530,94115,"(37.7856385, -122.4283867)"
zarzuela,2000 hyde st.,san francisco,415/346-0800,mexican/latin american/spanish,531,94109,"(37.7993433, -122.4189027)"
zuni cafe & grill,1658 market st.,san francisco,415/552-2522,mediterranean,532,94102,"(37.77361399999999, -122.4216406)"
apple pan  the,10801 w. pico blvd.,west la,310-475-3585,american,534,90064,"(34.0406896, -118.4278502)"
asahi ramen,2027 sawtelle blvd.,west la,310-479-2231,noodle shops,535,90025,"(34.040195, -118.4432126)"
baja fresh,3345 kimber dr.,westlake village,805-498-4049,mexican,536,91320,"(34.1755548, -118.9480807)"
belvedere  the,9882 little santa monica blvd.,beverly hills,310-788-2306,pacific new wave,537,90212,"(34.0657248, -118.4106882)"
benita's frites,1433 third st. promenade,santa monica,310-458-2889,fast food,538,90401,"(34.0152381, -118.4955253)"
bernard's,515 s. olive st.,los angeles,213-612-1580,continental,539,90013,"(34.0493121, -118.2532446)"
bistro 45,45 s. mentor ave.,pasadena,818-795-2478,californian,540,91106,"(34.1450068, -118.1310805)"
brent's deli,19565 parthenia ave.,northridge,818-886-5679,delis,541,91324,"(34.228923, -118.5604874)"
brighton coffee shop,9600 brighton way,beverly hills,310-276-7732,coffee shops,542,90210,"(34.0683181, -118.4040078)"
bristol farms market cafe,1570 rosecrans ave. s.,pasadena,310-643-5229,californian,543,90266,"(33.9003509, -118.3848828)"
bruno's,3838 centinela ave.,mar vista,310-397-5703,italian,544,90066,"(34.0030806, -118.4327926)"
cafe '50s,838 lincoln blvd.,venice,310-399-1955,american,545,90291,"(33.9991156, -118.4627313)"
cafe blanc,9777 little santa monica blvd.,beverly hills,310-888-0108,pacific new wave,546,90210,"(34.0675996, -118.4090648)"
cassell's,3266 w. sixth st.,la,213-480-8668,hamburgers,547,90020,"(34.0634809, -118.2936285)"
chez melange,1716 pch,redondo beach,310-540-1222,eclectic,548,92648,"(33.6654138, -118.0128681)"
diaghilev,1020 n. san vicente blvd.,w. hollywood,310-854-1111,russian,549,90069,"(34.0897641, -118.3851819)"
don antonio's,1136 westwood blvd.,westwood,310-209-1422,italian,550,90024,"(34.060066, -118.4447761)"
duke's,8909 sunset blvd.,w. hollywood,310-652-3100,coffee shops,551,90069,"(34.0908042, -118.3858605)"
falafel king,1059 broxton ave.,westwood,310-208-4444,middle eastern,552,90024,"(34.061434, -118.446446)"
feast from the east,1949 westwood blvd.,west la,310-475-0400,chinese,553,90025,"(34.0473246, -118.4351719)"
gumbo pot  the,6333 w. third st.,la,213-933-0358,cajun/creole,554,90036,"(34.0722795, -118.3602751)"
hollywood hills coffee shop,6145 franklin ave.,hollywood,213-467-7678,coffee shops,555,90028,"(34.1054088, -118.3239035)"
indo cafe,10428 1/2 national blvd.,la,310-815-1290,indonesian,556,90034,"(34.0287738, -118.4113266)"
jan's family restaurant,8424 beverly blvd.,la,213-651-2866,coffee shops,557,90048,"(34.075894, -118.37407)"
jiraffe,502 santa monica blvd,santa monica,310-917-6671,californian,558,90401,"(34.0172103, -118.4939764)"
jody maroni's sausage kingdom,2011 ocean front walk,venice,310-306-1995,hot dogs,559,90291,"(33.9846343, -118.4714355)"
joe's,1023 abbot kinney blvd.,venice,310-399-5811,american (new),560,90291,"(33.9922429, -118.4718658)"
john o'groats,10516 w. pico blvd.,west la,310-204-0692,coffee shops,561,90064,"(34.0447677, -118.4193021)"
johnnie's pastrami,4017 s. sepulveda blvd.,culver city,310-397-6654,delis,562,90230,"(34.0081789, -118.4138229)"
johnny reb's southern smokehouse,4663 long beach blvd.,long beach,310-423-7327,southern/soul,563,90807,"(33.8423904, -118.1926019)"
johnny rockets (la),7507 melrose ave.,la,213-651-3361,american,564,90046,"(34.0837966, -118.353576)"
killer shrimp,4000 colfax ave.,studio city,818-508-1570,seafood,565,91604,"(34.1413867, -118.3870791)"
kokomo cafe,6333 w. third st.,la,213-933-0773,american,566,90036,"(34.0722795, -118.3602751)"
koo koo roo,8393 w. beverly blvd.,la,213-655-9045,chicken,567,90048,"(34.0763956, -118.3730267)"
la cachette,10506 little santa monica blvd.,century city,310-470-4992,french (new),568,,"(34.0480177, -118.4433867)"
la salsa (la),22800 pch,malibu,310-456-6299,mexican,569,95437,"(39.4716107, -123.7990573)"
la serenata de garibaldi,1842 e. first,st. boyle hts.,213-265-2887,mexican/tex-mex,570,90033,"(34.0467488, -118.2184304)"
langer's,704 s. alvarado st.,la,213-483-8050,delis,571,90057,"(34.0561852, -118.2768039)"
local nochol,30869 thousand oaks blvd.,westlake village,818-706-7706,health food,572,91362,"(34.1564636, -118.7938164)"
main course  the,10509 w. pico blvd.,rancho park,310-475-7564,american,573,90064,"(34.0452069, -118.4194284)"
mani's bakery & espresso bar,519 s. fairfax ave.,la,213-938-8800,desserts,574,90036,"(34.066976, -118.3618162)"
martha's,22nd street grill 25 22nd,st. hermosa beach,310-376-7786,american,575,90254,"(33.86931130000001, -118.4039787)"
maxwell's cafe,13329 washington blvd.,marina del rey,310-306-7829,american,576,90066,"(33.9929249, -118.4432752)"
michael's (los angeles),1147 third st.,santa monica,310-451-0843,californian,577,90403,"(34.0190154, -118.4995044)"
mishima,8474 w. third st.,la,213-782-0181,noodle shops,578,90048,"(34.07291379999999, -118.3753034)"
mo better meatty meat,7261 melrose ave.,la,213-935-5280,hamburgers,579,90046,"(34.0837327, -118.347907)"
mulberry st.,17040 ventura blvd.,encino,818-906-8881,pizza,580,91316,"(34.1598497, -118.5047366)"
ocean park cafe,3117 ocean park blvd.,santa monica,310-452-5728,american,581,90405,"(34.0209986, -118.4525825)"
ocean star,145 n. atlantic blvd.,monterey park,818-308-2128,seafood,582,91754,"(34.0642548, -118.1344904)"
original pantry bakery,875 s. figueroa st. downtown,la,213-627-6879,diners,583,90017,"(34.0464457, -118.2628336)"
parkway grill,510 s. arroyo pkwy.,pasadena,818-795-1001,californian,584,91101,"(34.1370617, -118.1468991)"
pho hoa,642 broadway,chinatown,213-626-5530,vietnamese,585,90012,"(34.0597521, -118.2390712)"
pink's famous chili dogs,709 n. la brea ave.,la,213-931-4223,hot dogs,586,90038,"(34.0838768, -118.3442546)"
poquito mas,2635 w. olive ave.,burbank,818-563-2252,mexican,587,91505,"(34.1599416, -118.3311564)"
r-23,923 e. third st.,los angeles,213-687-7178,japanese,588,90012,"(34.0463078, -118.2341624)"
rae's,2901 pico blvd.,santa monica,310-828-7937,diners,589,90405,"(34.0250017, -118.4595928)"
rubin's red hots,15322 ventura blvd.,encino,818-905-6515,hot dogs,590,91403,"(34.1536839, -118.4669615)"
ruby's (la),45 s. fair oaks ave.,pasadena,818-796-7829,diners,591,91105,"(34.1449715, -118.1506038)"
russell's burgers,1198 pch,seal beach,310-596-9556,hamburgers,592,90740,"(33.7429979, -118.1006089)"
ruth's chris steak house (los angeles),224 s. beverly dr.,beverly hills,310-859-8744,steakhouses,593,90212,"(34.0640246, -118.3987689)"
shiro,1505 mission st. s.,pasadena,818-799-4774,pacific new wave,594,91030,"(34.1156149, -118.151411)"
sushi nozawa,11288 ventura blvd.,studio city,818-508-7017,japanese,595,91604,"(34.1402679, -118.375577)"
sweet lady jane,8360 melrose ave.,la,213-653-7145,desserts,596,90069,"(34.0834054, -118.3725144)"
taiko,11677 san vicente blvd.,brentwood,310-207-7782,noodle shops,597,90049,"(34.0542471, -118.4651397)"
tommy's,2575 beverly blvd.,la,213-389-9060,hamburgers,598,90057,"(34.0694981, -118.2762101)"
uncle bill's pancake house,1305 highland ave.,manhattan beach,310-545-5177,diners,599,90266,"(33.8864152, -118.4106207)"
water grill,544 s. grand ave.,los angeles,213-891-0900,seafood,600,90071,"(34.0490403, -118.2547066)"
zankou chicken,1415 e. colorado st.,glendale,818-244-1937,middle eastern,601,91205,"(34.1432176, -118.2333374)"
afghan kebab house,764 ninth ave.,new york city,212-307-1612,afghan,602,10019,"(40.7641852, -73.9881293)"
arcadia,21 e. 62nd st.,new york city,212-223-2900,american (new),603,10065,"(40.7657854, -73.9703126)"
benny's burritos,93 ave. a,new york city,212-254-2054,mexican,604,10009,"(40.7254331, -73.9842426)"
cafe con leche,424 amsterdam ave.,new york city,212-595-7000,cuban,605,10024,"(40.7841454, -73.9778061)"
corner bistro,331 w. fourth st.,new york city,212-242-9502,hamburgers,606,10014,"(40.73799229999999, -74.0037457)"
cucina della fontana,368 bleecker st.,new york city,212-242-0636,italian,607,10014,"(40.73472470000001, -74.00497109999999)"
cucina di pesce,87 e. fourth st.,new york city,212-260-6800,seafood,608,10003,"(40.72651, -73.9897689)"
darbar,44 w. 56th st.,new york city,212-432-7227,indian,609,10019,"(40.763028, -73.97666699999999)"
ej's luncheonette,432 sixth ave.,new york city,212-473-5555,diners,610,10011,"(40.7343992, -73.99858979999999)"
edison cafe,228 w. 47th st.,new york city,212-840-5000,diners,611,10036,"(40.7597355, -73.9861511)"
elias corner,24-02 31st st.,queens,718-932-1510,greek,612,11102,"(40.7723252, -73.91575139999999)"
good enough to eat,483 amsterdam ave.,new york city,212-496-0163,american,613,10024,"(40.785767, -73.976047)"
gray's papaya,2090 broadway,new york city,212-799-0243,hot dogs,614,10023,"(40.77835779999999, -73.9815721)"
il mulino,86 w. third st.,new york city,212-673-3783,italian,615,10012,"(40.7297668, -73.9991407)"
jackson diner,37-03 74th st.,queens,718-672-1232,indian,616,11372,"(40.7487977, -73.8916373)"
joe's shanghai,9 pell st.,queens,718-539-3838,chinese,617,10013,"(40.7146266, -73.99776349999999)"
john's pizzeria,48 w. 65th st.,new york city,212-721-7001,pizza,618,10023,"(40.7723779, -73.9810844)"
kelley & ping,127 greene st.,new york city,212-228-1212,pan-asian,619,10012,"(40.72560379999999, -73.9991458)"
kiev,117 second ave.,new york city,212-674-4040,ukrainian,620,10003,"(40.7280243, -73.9884895)"
kuruma zushi,2nd fl.,new york city,212-317-2802,japanese,621,10021,"(40.7695487, -73.9544057)"
la caridad,2199 broadway,new york city,212-874-2780,cuban,622,10024,"(40.78317759999999, -73.98079919999999)"
la grenouille,3 e. 52nd st.,new york city,212-752-1495,french (classic),623,10022,"(40.7596796, -73.97557069999999)"
lemongrass grill,61a seventh ave.,brooklyn,718-399-7100,thai,624,11217,"(40.6754638, -73.9745614)"
lombardi's,32 spring st.,new york city,212-941-7994,pizza,625,10012,"(40.7216368, -73.99572049999999)"
marnie's noodle shop,466 hudson st.,new york city,212-741-3214,asian,626,10014,"(40.731794, -74.00639)"
menchanko-tei,39 w. 55th st.,new york city,212-247-1585,japanese,627,10019,"(40.7625793, -73.9765584)"
mitali east-west,296 bleecker st.,new york city,212-989-1367,indian,628,10014,"(40.7323381, -74.0038162)"
monsoon (ny),435 amsterdam ave.,new york city,212-580-8686,thai,629,10024,"(40.7842809, -73.977244)"
moustache,405 atlantic ave.,brooklyn,718-852-5555,middle eastern,630,11217,"(40.6870136, -73.9844502)"
nobu,105 hudson st.,new york city,212-219-0500,japanese,631,10013,"(40.719584, -74.0088579)"
one if by land  tibs,17 barrow st.,new york city,212-228-0822,continental,632,10014,"(40.73249440000001, -74.00258389999999)"
oyster bar,lower level,new york city,212-490-6650,seafood,633,,"(40.8508985, -73.94878969999999)"
palm,837 second ave.,new york city,212-687-2953,steakhouses,634,10017,"(40.751708, -73.9711853)"
palm too,840 second ave.,new york city,212-697-5198,steakhouses,635,10017,"(40.7514669, -73.9706863)"
patsy's pizza,19 old fulton st.,brooklyn,718-858-4300,pizza,636,11201,"(40.7027359, -73.99344789999999)"
peter luger steak house,178 broadway,brooklyn,718-387-7400,steakhouses,637,11211,"(40.7097529, -73.96247869999999)"
rose of india,308 e. sixth st.,new york city,212-533-5011,indian,638,10003,"(40.7269931, -73.98807790000001)"
sam's noodle shop,411 third ave.,new york city,212-213-2288,chinese,639,10016,"(40.74237120000001, -73.9801834)"
sarabeth's,1295 madison ave.,new york city,212-410-7335,american,640,10128,"(40.7847977, -73.9556597)"
sparks steak house,210 e. 46th st.,new york city,212-687-4855,steakhouses,641,11203,"(40.6562971, -73.93478429999999)"
stick to your ribs,5-16 51st ave.,queens,718-937-3030,bbq,642,11101,"(40.7422678, -73.9559433)"
sushisay,38 e. 51st st.,new york city,212-755-1780,japanese,643,10022,"(40.7579878, -73.97450649999999)"
sylvia's,328 lenox ave.,new york city,212-996-0660,southern/soul,644,10027,"(40.8085994, -73.9444779)"
szechuan hunan cottage,1588 york ave.,new york city,212-535-5223,chinese,645,10028,"(40.7743013, -73.94803689999999)"
szechuan kitchen,1460 first ave.,new york city,212-249-4615,chinese,646,10021,"(40.7700976, -73.95371999999999)"
teresa's,80 montague st.,queens,718-520-2910,polish,647,11201,"(40.6951826, -73.99625069999999)"
thai house cafe,151 hudson st.,new york city,212-334-1085,thai,648,10013,"(40.7214664, -74.0086896)"
thailand restaurant,106 bayard st.,new york city,212-349-3132,thai,649,10013,"(40.7162516, -73.999943)"
veselka,144 second ave.,new york city,212-228-9682,ukrainian,650,10003,"(40.7289226, -73.98692849999999)"
westside cottage,689 ninth ave.,new york city,212-245-0800,chinese,651,10036,"(40.7619901, -73.9903719)"
windows on the world,107th fl.,new york city,212-524-7000,eclectic,652,10025,"(40.8008544, -73.964631)"
wollensky's grill,205 e. 49th st.,new york city,212-753-0444,steakhouses,653,10017,"(40.7549912, -73.9707083)"
yama,122 e. 17th st.,new york city,212-475-0969,japanese,654,10003,"(40.7358677, -73.9876687)"
zarela,953 second ave.,new york city,212-644-6740,mexican,655,10022,"(40.7553091, -73.9685283)"
andre's french restaurant,401 s. 6th st.,las vegas,702-385-5016,french (classic),656,89101,"(36.1649134, -115.1415071)"
buccaneer bay club,3300 las vegas blvd. s.,las vegas,702-894-7350,continental,657,89109,"(36.1247643, -115.1719639)"
buzio's in the rio,3700 w. flamingo rd.,las vegas,702-252-7697,seafood,658,89103,"(36.1163819, -115.1850253)"
emeril's new orleans fish house,3799 las vegas blvd. s.,las vegas,702-891-7374,seafood,659,89109,"(36.1022507, -115.1699679)"
fiore rotisserie & grille,3700 w. flamingo rd.,las vegas,702-252-7702,italian,660,89103,"(36.1163819, -115.1850253)"
hugo's cellar,202 e. fremont st.,las vegas,702-385-4011,continental,661,89101,"(36.1696655, -115.1441707)"
madame ching's,3300 las vegas blvd. s.,las vegas,702-894-7111,asian,662,89109,"(36.1247643, -115.1719639)"
mayflower cuisinier,4750 w. sahara ave.,las vegas,702-870-8432,chinese,663,89102,"(36.1455069, -115.2066085)"
michael's (las vegas),3595 las vegas blvd. s.,las vegas,702-737-7111,continental,664,89109,"(36.1150009, -115.1718246)"
monte carlo,3145 las vegas blvd. s.,las vegas,702-733-4524,french (new),665,89109,"(36.127675, -115.1664725)"
moongate,3400 las vegas blvd. s.,las vegas,702-791-7352,chinese,666,89109,"(36.1206111, -115.1768386)"
morton's of chicago (las vegas),3200 las vegas blvd. s.,las vegas,702-893-0703,steakhouses,667,89109,"(36.1275236, -115.1715003)"
nicky blair's,3925 paradise rd.,las vegas,702-792-9900,italian,668,89169,"(36.1180324, -115.1554271)"
piero's restaurant,355 convention center dr.,las vegas,702-369-2305,italian,669,89109,"(36.13191, -115.155983)"
spago (las vegas),3500 las vegas blvd. s.,las vegas,702-369-6300,californian,670,89109,"(36.1174528, -115.1766881)"
steakhouse  the,128 e. fremont st.,las vegas,702-382-1600,steakhouses,671,89101,"(36.1716327, -115.1442634)"
stefano's,129 fremont st.,las vegas,702-385-7111,italian,672,89101,"(36.1701653, -115.1449582)"
sterling brunch,3645 las vegas blvd. s.,las vegas,702-739-4651,eclectic,673,89109,"(36.1142224, -115.1708505)"
tre visi,3799 las vegas blvd. s.,las vegas,702-891-7331,italian,674,89109,"(36.1022507, -115.1699679)"
103 west,103 w. paces ferry rd.,atlanta,404-233-5993,continental,675,30305,"(33.8415646, -84.38365069999999)"
alon's at the terrace,659 peachtree st.,atlanta,404-724-0444,sandwiches,676,30308,"(33.7727116, -84.3843072)"
baker's cajun cafe,1134 euclid ave.,atlanta,404-223-5039,cajun/creole,677,30307,"(33.7648325, -84.3502175)"
barbecue kitchen,1437 virginia ave.,atlanta,404-766-9906,bbq,678,30337,"(33.6596098, -84.436098)"
bistro  the,56 e. andrews dr. nw,atlanta,404-231-5733,french bistro,679,30305,"(33.8426657, -84.3811047)"
bobby & june's kountry kitchen,375 14th st.,atlanta,404-876-3872,southern/soul,680,30318,"(33.7864244, -84.3993936)"
bradshaw's restaurant,2911 s. pharr court,atlanta,404-261-7015,southern/soul,681,30305,"(33.8346611, -84.38479989999999)"
brookhaven cafe,4274 peachtree rd.,atlanta,404-231-5907,vegetarian,682,30319,"(33.8679911, -84.335668)"
cafe sunflower,5975 roswell rd.,atlanta,404-256-1675,health food,683,30328,"(33.91853, -84.3779526)"
canoe,4199 paces ferry rd.,atlanta,770-432-2663,american (new),684,30339,"(33.8599248, -84.4558426)"
carey's,1021 cobb pkwy. se,marietta,770-422-8042,hamburgers,685,30067,"(33.9269078, -84.5072237)"
carey's corner,1215 powers ferry rd.,marietta,770-933-0909,hamburgers,686,30067,"(33.9221539, -84.4679367)"
chops,70 w. paces ferry rd.,atlanta,404-262-2675,steakhouses,687,30305,"(33.8398303, -84.3818438)"
chopstix,4279 roswell rd.,atlanta,404-255-4868,chinese,688,30342,"(33.87050180000001, -84.3796266)"
deacon burton's soulfood restaurant,1029 edgewood ave. se,atlanta,404-523-1929,southern/soul,689,30307,"(33.754611, -84.364144)"
eats,600 ponce de leon ave.,atlanta,404-888-9149,italian,690,30308,"(33.7736968, -84.3672046)"
flying biscuit  the,1655 mclendon ave.,atlanta,404-687-8888,eclectic,691,30307,"(33.764637, -84.33321049999999)"
frijoleros,1031 peachtree st. ne,atlanta,404-892-8226,tex-mex,692,30309,"(33.7830463, -84.3838936)"
greenwood's,1087 green st.,roswell,770-992-5383,southern/soul,693,30075,"(34.02816, -84.3597502)"
harold's barbecue,171 mcdonough blvd.,atlanta,404-627-9268,bbq,694,30315,"(33.7175464, -84.3826649)"
havana sandwich shop,2905 buford hwy.,atlanta,404-636-4094,cuban,695,30329,"(33.832824, -84.3406025)"
house of chan,2469 cobb pkwy.,smyrna,770-955-9444,chinese,696,30080,"(33.8918385, -84.47598719999999)"
indian delights,3675 satellite blvd.,duluth,100-813-8212,indian,697,30096,"(33.9585414, -84.13724739999999)"
java jive,790 ponce de leon ave.,atlanta,404-876-6161,coffee shops,698,30306,"(33.7740211, -84.3614752)"
johnny rockets (at),2970 cobb pkwy.,atlanta,770-955-6068,american,699,30339,"(33.8804229, -84.4625913)"
kalo's coffee house,1248 clairmont rd.,decatur,404-325-3733,coffeehouses,700,30030,"(33.7897382, -84.3077278)"
la fonda latina,4427 roswell rd.,atlanta,404-303-8201,spanish,701,30342,"(33.8758484, -84.38044029999999)"
lettuce souprise you (at),3525 mall blvd.,duluth,770-418-9969,cafeterias,702,30096,"(33.9601974, -84.13137239999999)"
majestic,1031 ponce de leon ave.,atlanta,404-875-0276,diners,703,30306,"(33.7736624, -84.3536731)"
morton's of chicago (atlanta),303 peachtree st. ne,atlanta,404-577-4366,steakhouses,704,30308,"(33.762766, -84.3865105)"
my thai,1248 clairmont rd.,atlanta,404-636-4280,thai,705,30030,"(33.7897382, -84.3077278)"
nava,3060 peachtree rd.,atlanta,404-240-1984,southwestern,706,30305,"(33.8392815, -84.3806618)"
nuevo laredo cantina,1495 chattahoochee ave. nw,atlanta,404-352-9009,mexican,707,30318,"(33.8094661, -84.4367339)"
original pancake house (at),4330 peachtree rd.,atlanta,404-237-4116,american,708,30319,"(33.8698318, -84.33467259999999)"
palm  the (atlanta),3391 peachtree rd. ne,atlanta,404-814-1955,steakhouses,709,30326,"(33.8481611, -84.3652949)"
rainbow restaurant,2118 n. decatur rd.,decatur,404-633-3538,vegetarian,710,30033,"(33.7908588, -84.3052307)"
ritz-carlton cafe (atlanta),181 peachtree st.,atlanta,404-659-0400,american (new),711,30303,"(33.75857209999999, -84.38718109999999)"
riviera,519 e. paces ferry rd.,atlanta,404-262-7112,mediterranean,712,30305,"(33.8383954, -84.3708596)"
silver skillet  the,200 14th st. nw,atlanta,404-874-1388,coffee shops,713,30318,"(33.7863332, -84.3940968)"
soto,3330 piedmont rd.,atlanta,404-233-2005,japanese,714,30305,"(33.8457987, -84.3744938)"
thelma's kitchen,764 marietta st. nw,atlanta,404-688-5855,cafeterias,715,30318,"(33.773105, -84.40405799999999)"
tortillas,774 ponce de leon ave. ne,atlanta,404-892-0193,tex-mex,716,30306,"(33.7739973, -84.3620206)"
van gogh's restaurant & bar,70 w. crossville rd.,roswell,770-993-1156,american (new),717,30075,"(34.0486219, -84.3632824)"
veggieland,220 sandy springs circle,atlanta,404-231-3111,vegetarian,718,30328,"(33.9249558, -84.38385559999999)"
white house restaurant,3172 peachtree rd. ne,atlanta,404-237-7601,diners,719,30305,"(33.8409736, -84.3765177)"
zab-e-lee,4837 old national hwy.,college park,404-768-2705,thai,720,30337,"(33.6239275, -84.4765673)"
bill's place,2315 clement st.,san francisco,415-221-5262,hamburgers,721,94121,"(37.7818522, -122.4841716)"
cafe flore,2298 market st.,san francisco,415-621-8579,californian,722,94114,"(37.7646778, -122.4329332)"
caffe greco,423 columbus ave.,san francisco,415-397-6261,continental,723,94133,"(37.7989568, -122.4086733)"
campo santo,240 columbus ave.,san francisco,415-433-9623,mexican,724,94133,"(37.7975179, -122.4058189)"
cha cha cha's,1805 haight st.,san francisco,415-386-5758,caribbean,725,94117,"(37.7692684, -122.4521212)"
doidge's,2217 union st.,san francisco,415-921-2149,american,726,94123,"(37.79690970000001, -122.4358704)"
dottie's true blue cafe,522 jones st.,san francisco,415-885-2767,diners,727,94102,"(37.7860601, -122.41288)"
dusit thai,3221 mission st.,san francisco,415-826-4639,thai,728,94110,"(37.745107, -122.4198625)"
ebisu,1283 ninth ave.,san francisco,415-566-1770,japanese,729,94122,"(37.7644571, -122.46666)"
emerald garden restaurant,1550 california st.,san francisco,415-673-1155,vietnamese,730,94109,"(37.7909273, -122.4200478)"
eric's chinese restaurant,1500 church st.,san francisco,415-282-0919,chinese,731,94131,"(37.74676729999999, -122.4272815)"
hamburger mary's,1582 folsom st.,san francisco,415-626-1985,hamburgers,732,94103,"(37.771157, -122.4151349)"
kelly's on trinity,333 bush st.,san francisco,415-362-4454,californian,733,94104,"(37.7906431, -122.4030566)"
la cumbre,515 valencia st.,san francisco,415-863-8205,mexican,734,94110,"(37.7645809, -122.4216212)"
la mediterranee,288 noe st.,san francisco,415-431-7210,mediterranean,735,94114,"(37.7645065, -122.433426)"
la taqueria,2889 mission st.,san francisco,415-285-7117,mexican,736,94110,"(37.7508992, -122.4181121)"
mario's bohemian cigar store cafe,2209 polk st.,san francisco,415-776-8226,italian,737,94109,"(37.7971043, -122.422216)"
marnee thai,2225 irving st.,san francisco,415-665-9500,thai,738,94122,"(37.7631321, -122.4818415)"
mel's drive-in,3355 geary st.,san francisco,415-387-2244,hamburgers,739,94118,"(37.7811247, -122.4548393)"
mo's burgers,1322 grant st.,san francisco,415-788-3779,hamburgers,740,94133,"(37.7992053, -122.4071055)"
phnom penh cambodian restaurant,631 larkin st.,san francisco,415-775-5979,cambodian,741,94109,"(37.7838268, -122.4177934)"
roosevelt tamale parlor,2817 24th st.,san francisco,415-550-9213,mexican,742,94110,"(37.7526561, -122.40861)"
sally's cafe & bakery,300 de haro st.,san francisco,415-626-6006,american,743,94103,"(37.7657768, -122.402083)"
san francisco bbq,1328 18th st.,san francisco,415-431-8956,thai,744,94107,"(37.7627336, -122.396142)"
slanted door,584 valencia st.,san francisco,415-861-8032,vietnamese,745,94110,"(37.7635714, -122.4219691)"
swan oyster depot,1517 polk st.,san francisco,415-673-1101,seafood,746,94109,"(37.79083079999999, -122.420964)"
thep phanom,400 waller st.,san francisco,415-431-2526,thai,747,94117,"(37.7713355, -122.4304886)"
ti couz,3108 16th st.,san francisco,415-252-7373,french,748,94103,"(37.765083, -122.4223264)"
trio cafe,1870 fillmore st.,san francisco,415-563-2248,american,749,94115,"(37.7867544, -122.4333052)"
tu lan,8 sixth st.,san francisco,415-626-0927,vietnamese,750,94103,"(37.7818759, -122.41013)"
vicolo pizzeria,201 ivy st.,san francisco,415-863-2382,pizza,751,94102,"(37.7775648, -122.4214553)"
wa-ha-ka oaxaca mexican grill,2141 polk st.,san francisco,415-775-1055,mexican,752,94109,"(37.7965751, -122.4221937)"
